Voter ID,Ballot Style ID,Precinct ID,First Name,Middle Name,Last Name,Name Suffix,Street 1,Street 2,City,State,Zip Code
7025533,5,20,Mellisent,Derby,Drydale,,2551 Main Street,"",San Jose,California,95128
4527536,12,20,Gay,Agna,Abisetti,,258 Sugar Point,"",Oklahoma City,Oklahoma,73190
1014002,5,20,Aprilette,Verge,Audiss,,904 Carioca Plaza,"",Albany,New York,12232
4905591,12,23,Jacqueline,Marshal,Luno,,05146 Iowa Alley,"",Des Moines,Iowa,50330
8932085,5,21,Ellswerth,Jacques,Thornton,,227 Talisman Road,"",Lancaster,California,93584
6912480,5,23,Sarette,Ozzie,Goodwell,,672 Sunfield Street,"",Alhambra,California,91841
7401315,12,23,Agnesse,Wiatt,Storror,,830 Bultman Circle,"",Chicago,Illinois,60609
7810067,12,21,Adolphe,Jefferey,Thorlby,,21 Kennedy Point,"",Buffalo,New York,14210
5739000,5,23,Tommie,Perren,Jakeway,,32 Vera Lane,"",Omaha,Nebraska,68117
2049884,7C,21,Murdoch,Daisy,Martt,,9979 Westerfield Terrace,"",Jacksonville,Florida,32215
3494922,7C,21,Dianemarie,Jehanna,Simonot,,59 Union Road,"",Springfield,Massachusetts,01105
5339090,5,23,Flossie,Evy,Bew,III,379 Fairview Park,"",Hartford,Connecticut,06120
9717527,7C,20,Igor,Olivier,Welbourn,,817 Nevada Lane,"",Gainesville,Georgia,30506
2841938,12,21,Isac,Myra,Shurmore,,95 Dahle Place,"",Gainesville,Florida,32627
3633199,12,23,Packston,Nolie,McCarty,,4489 Larry Center,"",Honolulu,Hawaii,96815
8580185,12,21,Aimil,Inna,Prinett,Sr,8 Utah Junction,"",Oklahoma City,Oklahoma,73190
7021544,7C,20,Rudolfo,Effie,Varnam,,9653 Division Avenue,"",Eugene,Oregon,97405
9192201,7C,23,Alejandro,Kat,Buterton,,2 Riverside Terrace,"",New York City,New York,10120
2307845,12,20,Milli,Shannon,Goodlett,Sr,121 Nancy Park,"",Philadelphia,Pennsylvania,19093
5012334,5,21,Lyndsie,Glad,Chamberlin,,91739 Washington Park,"",Bismarck,North Dakota,58505
8583026,5,23,Udell,Dannel,Calyton,,7 Stephen Court,"",New Orleans,Louisiana,70124
6944498,5,21,Wilek,Kittie,Rocca,,22719 Westerfield Center,"",Pasadena,California,91103
3892832,7C,20,Yuma,Farlee,Wiltshear,III,872 Lerdahl Crossing,"",Indianapolis,Indiana,46221
4775909,5,20,Gaven,Cordie,Mehaffey,,931 Raven Junction,"",Minneapolis,Minnesota,55470
8282104,5,23,Bea,Druci,Ajam,,2 Talmadge Circle,"",Wichita,Kansas,67215
5096567,5,20,Phyllis,Clayborne,Tordoff,,35317 Spaight Pass,"",Fort Myers,Florida,33913
3198151,5,20,Marlena,Gerik,Pullar,,0957 Cottonwood Alley,"",Houston,Texas,77266
4808198,7C,20,Pincas,Adlai,Belsey,,77123 Ruskin Point,"",Reno,Nevada,89510
4290450,12,20,Rodolph,Ramon,Peterkin,,3071 Toban Alley,"",West Palm Beach,Florida,33421
1192929,12,23,Glennie,Terrijo,Hazelgrove,,973 Hintze Avenue,"",El Paso,Texas,79945
7053342,5,20,Kelci,Andy,Hudghton,,837 Heath Road,"",Jamaica,New York,11436
3342942,5,23,Helsa,Chryste,Nickels,,813 Dorton Park,"",Raleigh,North Carolina,27605
6255940,12,20,Grady,Mac,Haseldine,,1913 Village Alley,"",Clearwater,Florida,34629
8834885,5,21,Desi,Tyrone,Minto,,0184 Brentwood Plaza,"",Daytona Beach,Florida,32123
8766997,12,21,Shannah,Eldredge,Denzilow,,3 Sundown Alley,"",Indianapolis,Indiana,46239
7335319,12,20,Deeanne,Scott,Elener,,6 Towne Center,"",Saint Louis,Missouri,63104
4092001,5,23,Kesley,Willabella,Anfosso,,5 Shoshone Drive,"",Delray Beach,Florida,33448
9046967,5,23,Dore,Emeline,Treagus,,4 Brentwood Trail,"",Wichita,Kansas,67210
4654118,7C,23,Donetta,Baillie,Reace,,59383 Towne Street,"",Tucson,Arizona,85748
1799728,5,20,Corny,Tobie,Stopforth,,4 Rowland Alley,"",Arlington,Virginia,22225
6978830,12,23,Starlene,Colline,Cake,IV,318 Prairieview Parkway,"",Las Vegas,Nevada,89193
7253473,7C,23,Brianne,Dosi,Norcliff,,0949 Heffernan Point,"",Ridgely,Maryland,21684
6402014,5,21,Bertrando,Clio,Dumingos,,78024 4th Pass,"",Mesquite,Texas,75185
6487702,7C,20,Bevan,Patrizio,Hannent,,715 Westport Drive,Unit #75,Charlotte,North Carolina,28210
1117102,12,21,Arman,Rania,Farloe,,8 Eagle Crest Way,"",Salt Lake City,Utah,84199
3453864,12,23,Adrianne,Marie-ann,Andri,,2287 Vermont Hill,"",Palatine,Illinois,60078
2910231,12,20,Yolane,Oran,Pighills,III,454 Northfield Pass,"",Seattle,Washington,98104
5956772,12,23,Jessee,Rubi,Cristofolini,,01647 Declaration Way,Apartment 3,Austin,Texas,78744
8571553,7C,23,Ronni,Lew,Goodlake,,953 Ridgeview Drive,"",Albany,New York,12210
4802460,7C,21,Meagan,Teddy,Monument,Jr,129 Darwin Way,"",Arlington,Virginia,22244
3939061,12,21,Stanford,Shalom,Marnane,,424 Reinke Terrace,"",Sacramento,California,94297
5973026,7C,23,Amble,Guillermo,Gerholz,,577 Village Green Point,Apartment 3,Everett,Washington,98206
2493680,7C,21,Ganny,Glynis,Masterson,,8390 Schiller Crossing,Apartment 3,Canton,Ohio,44720
8737509,7C,20,Griffith,Lynde,Broadberrie,,83342 Loftsgordon Park,"",New Orleans,Louisiana,70187
7905246,5,21,Inger,Cherilynn,Le Strange,,7 Bobwhite Alley,"",Gainesville,Georgia,30506
4385216,7C,20,Lee,Sax,Bruyns,Sr,6 Bobwhite Trail,"",Garden Grove,California,92844
4151635,12,23,Elsie,Bucky,Hagstone,,171 Linden Lane,"",Portland,Oregon,97232
9475657,12,20,Kaitlyn,Mackenzie,Duthie,,16 Hollow Ridge Parkway,"",Detroit,Michigan,48275
2527747,5,20,Artur,Aggi,Sorrel,,97951 Mcbride Place,"",Las Vegas,Nevada,89178
3800269,12,23,Julietta,Aubry,Fyfe,,4936 Sauthoff Alley,"",Los Angeles,California,90010
6723210,5,20,Wilmar,Orrin,Magill,,61451 Derek Trail,"",Salt Lake City,Utah,84145
5245962,7C,21,Lib,Dane,Gyorffy,,9 Lunder Street,"",Huntsville,Alabama,35810
6311981,12,23,Georgy,Herbert,Snowden,Sr,3682 Schmedeman Park,"",New York City,New York,10170
4211627,12,20,Cloe,Margi,Degan,,20 Meadow Valley Place,"",Salt Lake City,Utah,84125
5157530,7C,21,Niels,Patricio,Jardin,,55806 Menomonie Lane,"",Portsmouth,New Hampshire,03804
2115186,12,20,Gaye,Giffard,Leban,,64 Center Lane,"",Elizabeth,New Jersey,07208
6735301,7C,20,Lesley,Sallie,Noir,,487 Coolidge Pass,"",El Paso,Texas,79911
5511987,7C,23,Elfie,Almeta,Surpliss,,0023 Scott Parkway,"",Santa Monica,California,90405
5011744,12,21,Aleta,Rosalie,Guslon,,26 Gerald Street,"",West Hartford,Connecticut,06127
5943989,7C,20,Florina,Ambrosius,Markovich,,3380 Chinook Pass,"",Staten Island,New York,10305
5144578,12,21,Remus,Melinde,Pringle,,689 Tony Street,"",Washington,District of Columbia,20404
9316502,7C,23,Savina,Shel,Huie,,40 Meadow Vale Crossing,"",Louisville,Kentucky,40205
9635520,12,23,Leigha,Elwin,Manuely,,135 Graedel Crossing,"",Ventura,California,93005
2549168,5,20,Homer,Vittorio,Bridgwater,,32 Atwood Avenue,Unit #75,Orlando,Florida,32813
4528669,5,23,Claudina,Marvin,Shemelt,,2462 Loeprich Street,"",Tulsa,Oklahoma,74116
9735682,12,20,Tamas,Wallace,Mountfort,,97 Hovde Road,"",Cleveland,Ohio,44185
3949293,5,20,Amandy,Maurita,Mara,,62221 Hollow Ridge Street,Unit #75,Reno,Nevada,89595
5717611,7C,21,Kelbee,Alys,Headley,,27335 Kingsford Place,"",Portland,Oregon,97201
2696221,12,23,Georgie,Fons,McAllen,,98 Bunker Hill Parkway,"",Oklahoma City,Oklahoma,73142
8241536,12,23,Jasper,Babb,Chedgey,,0537 Pleasure Lane,"",Portland,Oregon,97211
3776397,12,21,Davina,Amandy,Schroter,,95 Nova Way,"",Scottsdale,Arizona,85271
1294510,7C,21,Eadie,Caprice,Whorton,,4163 Straubel Street,"",Springfield,Illinois,62718
6803692,7C,20,Feliza,Galvan,Byles,Sr,13148 Dunning Park,"",Oceanside,California,92056
2495596,7C,20,Carri,Jaimie,Yeomans,,8 Hovde Terrace,"",Reading,Pennsylvania,19610
9798864,5,23,Shay,Hagan,Korneichuk,,17091 Spenser Avenue,"",Denver,Colorado,80217
3361168,7C,23,Dinah,Walt,Hogsden,,417 Springview Junction,"",Indianapolis,Indiana,46266
7698889,12,20,Darcie,Kissie,Anthiftle,,4158 Bellgrove Circle,Apartment 3,Birmingham,Alabama,35290
3585631,12,23,Terri,Harlene,Dunan,,441 Hallows Pass,Apartment 3,Long Beach,California,90840
1172175,5,23,Lissa,Burton,Mowne,,91 Oak Valley Pass,"",Brooklyn,New York,11236
4444680,12,23,Silva,Francene,Boydell,,644 Chinook Terrace,"",Lawrenceville,Georgia,30045
1101991,5,23,Marj,Fields,Schulken,,8460 Farmco Pass,"",New York City,New York,10009
4011743,7C,20,Glenn,Annabela,Fewings,,4049 Vermont Park,"",Silver Spring,Maryland,20918
2026437,5,23,Harald,Wilmette,Snarie,,4516 Straubel Pass,"",Buffalo,New York,14210
5685323,5,23,Meta,Gabbie,Mallard,,50 Susan Junction,Apartment 3,Sacramento,California,95838
2017425,12,20,Skippie,Michaelina,Perritt,,0437 Old Shore Crossing,"",North Port,Florida,34290
2904491,5,20,Sherilyn,Lucio,Lister,,953 Tennessee Junction,"",Austin,Texas,78703
2463085,7C,21,Enos,Orren,Hubert,IV,2989 Melody Place,"",Wilkes Barre,Pennsylvania,18706
4691464,5,23,Zebedee,Lek,Meaney,,86295 Prentice Point,"",Midland,Texas,79710
2459011,5,20,Barnebas,Deena,Iddins,,13614 Becker Avenue,"",Las Vegas,Nevada,89160
5889758,7C,20,Federico,Kaja,Cossey,,5 Graceland Place,"",Dayton,Ohio,45414
1231606,12,21,Donica,Patricia,Tumilson,,98041 Bowman Road,"",Philadelphia,Pennsylvania,19104
2199302,7C,21,Ferdinanda,Gayle,Milne,,8618 Lawn Street,"",Saint Paul,Minnesota,55108
8939674,7C,21,Corinna,Shermy,Philo,,8325 Eliot Street,"",Dallas,Texas,75246
4605437,5,20,Aline,Roxine,Crisell,,142 Russell Road,"",Concord,California,94522
5893795,7C,23,Dulciana,Eula,Ferran,,11095 5th Center,"",Aurora,Colorado,80015
8163683,12,20,Olivie,Stacee,Fothergill,,6 Pine View Center,"",Denver,Colorado,80204
6657645,12,20,Sunshine,Thelma,Ferronier,,2 Independence Hill,"",Spokane,Washington,99215
2549355,7C,21,Trix,Hadria,Longmire,,4 Mallory Alley,"",Tulsa,Oklahoma,74141
5458247,12,21,Babs,Arvin,Duell,,678 Montana Way,"",Spokane,Washington,99205
3936639,7C,23,Cilka,Darin,Sivior,,63945 Lighthouse Bay Hill,Unit #75,Boynton Beach,Florida,33436
4233039,12,21,Taddeo,Shayne,Jiru,,39581 Fairfield Trail,"",Van Nuys,California,91406
4763962,12,20,Joachim,Vito,Francillo,,60 Cordelia Crossing,"",Pueblo,Colorado,81010
5992187,7C,21,Olwen,Richard,Privost,,67 Anniversary Park,Unit #75,Huntington,West Virginia,25726
4770905,7C,23,Boonie,Leyla,Clears,,7 Portage Park,"",Washington,District of Columbia,20551
1455698,5,23,Lindsay,Rhodie,Stone,,5890 Ilene Road,"",Detroit,Michigan,48258
5669402,12,23,Val,Garek,Feldberger,,246 Dottie Avenue,"",Davenport,Iowa,52809
6606879,5,20,Dillon,Myrna,Kief,,16166 Elmside Lane,"",Boston,Massachusetts,02298
2876105,7C,20,Vita,Amye,Ledson,,4 Bluejay Terrace,"",Kansas City,Missouri,64153
5453648,7C,21,Toni,Eveleen,Goodfellow,,000 Huxley Drive,"",Newport Beach,California,92662
9979043,12,20,Mervin,Lexy,Boame,,5479 6th Pass,"",Memphis,Tennessee,38104
7237503,5,20,Duff,Arther,Kelleher,,98250 International Hill,"",Pensacola,Florida,32505
8958037,5,23,Enrichetta,Brady,Wenderoth,,2399 Swallow Parkway,"",High Point,North Carolina,27264
6297101,12,21,Valentin,Ashleigh,Hadenton,,369 Crownhardt Lane,"",Newark,New Jersey,07104
7117861,5,23,Pieter,Jocelyn,Desaur,,2306 Nancy Circle,"",Dayton,Ohio,45408
2930400,7C,20,Mychal,Leif,Poschel,,4627 Milwaukee Parkway,"",Pittsburgh,Pennsylvania,15215
9361264,12,21,Emyle,Napoleon,Pattington,,6239 Onsgard Place,"",Rochester,New York,14614
7524921,5,23,Cristian,Katine,Bangley,,10 Moland Drive,"",New Orleans,Louisiana,70174
6773130,7C,21,Papagena,Decca,Gentzsch,,84127 Forest Trail,"",East Saint Louis,Illinois,62205
5002618,5,21,Nananne,Danyelle,Chastang,,56 Tennyson Court,"",Toledo,Ohio,43656
2416404,7C,21,Elena,Law,Rogliero,,35323 Coleman Lane,"",Saint Paul,Minnesota,55127
2872199,7C,23,Rouvin,Finn,Cooke,,7611 Merry Plaza,"",San Bernardino,California,92415
9010967,7C,23,Sharai,Giavani,Caldayrou,,3 Bartillon Avenue,"",Charlotte,North Carolina,28247
9649790,5,21,Karol,Glenden,Keuning,,9 Fairfield Lane,"",Simi Valley,California,93094
1029483,5,21,Gabriel,Sergent,Sherbrook,,46220 Heath Center,"",Oklahoma City,Oklahoma,73190
8918973,5,23,Lucio,Maribeth,Seeney,,7 Corben Park,"",Oakland,California,94616
6180481,5,23,Weidar,Brandea,Limpenny,,15 Montana Circle,"",Los Angeles,California,90055
4493832,5,21,Frankie,Margarette,Reardon,,008 Summit Drive,"",Houston,Texas,77245
2433886,5,23,Tawnya,Amii,Opy,,0583 Hansons Place,"",Birmingham,Alabama,35254
6271687,7C,23,Rochell,Lyndsey,Sleep,,370 Artisan Center,"",Hot Springs National Park,Arkansas,71914
2213644,5,23,Jules,Cicely,Pamment,,6877 Dennis Trail,"",Cleveland,Ohio,44185
9861808,12,20,Concettina,Sherye,Ruff,,62565 Hazelcrest Place,"",Tulsa,Oklahoma,74184
1567831,5,20,Scarface,Grover,Cayzer,,3 Jana Center,"",Phoenix,Arizona,85077
9867202,5,23,Dianne,Kennith,Gallichiccio,,4946 Declaration Junction,"",Salinas,California,93907
8522577,12,20,Ardella,Elias,Billinge,,47995 Sunfield Plaza,"",Baltimore,Maryland,21203
5497829,7C,20,Tim,Charlene,Balassa,,80 Holy Cross Way,"",Hicksville,New York,11854
1994839,7C,23,Lanna,Dominga,Edon,,35143 Burrows Junction,"",Bakersfield,California,93305
9264977,5,21,Cherey,Lanny,Verrillo,III,87370 Gina Alley,"",Pittsburgh,Pennsylvania,15220
6132645,5,20,Reagan,Merrile,Tidcombe,,64 Barnett Circle,Apartment 3,Texarkana,Texas,75507
2055447,12,20,Bancroft,Christophe,Jeary,,8 Springs Circle,"",Hampton,Virginia,23663
2673623,7C,21,Lindy,Eachelle,Rowter,Sr,020 Bowman Street,"",Washington,District of Columbia,20436
3303053,12,21,Norah,Jonis,MacIlory,,7849 Donald Street,"",San Antonio,Texas,78230
4467289,7C,23,Tommi,Artus,Parslow,,7 Ilene Trail,"",Crawfordsville,Indiana,47937
2045424,7C,21,Ede,Tarrance,Sloan,,0 Union Alley,"",Baton Rouge,Louisiana,70883
7017584,12,21,Fleurette,Bernadene,Arents,,4713 Lyons Center,"",San Antonio,Texas,78285
7557678,7C,21,Daisy,Celestyna,Nuton,,32 Myrtle Avenue,"",Denver,Colorado,80223
7928971,7C,21,Corny,Julius,Cooke,,534 Pawling Trail,"",Fort Lauderdale,Florida,33330
7282707,5,21,Cynthy,Rubetta,Hasker,Sr,65657 4th Terrace,"",Springfield,Ohio,45505
4712021,7C,20,Eveleen,Astrix,Jannaway,,72230 Weeping Birch Hill,Apartment 3,Tuscaloosa,Alabama,35405
2665822,5,21,Mab,Cary,Janicijevic,,1 Melvin Hill,"",Saint Louis,Missouri,63158
3397251,7C,20,Venus,Yalonda,Bolduc,,4 Norway Maple Trail,"",San Francisco,California,94126
4571806,5,23,Constantia,Dall,Kubiak,,3 Northport Court,"",Oklahoma City,Oklahoma,73142
2507168,12,21,Ad,Nickie,Lammers,Sr,4 Sutteridge Road,"",Pompano Beach,Florida,33064
9516393,7C,23,Vinnie,Janaya,Fulham,,74 Westend Point,"",Oklahoma City,Oklahoma,73190
4574885,12,20,Richart,Calli,Bulford,Jr,010 Ramsey Pass,"",Billings,Montana,59112
3766477,5,21,Heda,Sari,Lucchi,,2478 Dottie Pass,"",Reston,Virginia,22096
1959130,7C,23,Darcey,Federica,Karys,,1 Hanover Circle,"",Louisville,Kentucky,40293
4474258,5,20,Pavlov,Shawna,Twaits,,16468 Del Mar Junction,"",Hayward,California,94544
1005768,12,20,Killie,Pia,Ailward,,018 Judy Pass,"",Providence,Rhode Island,02912
8604005,5,23,Mavra,Zoe,Bonnyson,,8 Mayer Parkway,"",Jacksonville,Florida,32259
3146592,5,23,Michel,Lelah,Martins,,8 Bowman Way,"",Toledo,Ohio,43699
4730667,7C,23,Barnabas,Baxy,O'Logan,,06 Milwaukee Road,Unit #75,Peoria,Illinois,61605
2600815,7C,20,Tallie,Arlee,Blanc,,7077 Jackson Lane,"",Vero Beach,Florida,32964
8938443,5,20,Trudie,Dorey,Eversfield,,0 Hanover Junction,"",San Antonio,Texas,78278
1474768,5,23,Olenolin,Petronilla,Cammidge,,2924 Farmco Terrace,"",Fort Worth,Texas,76134
2948717,7C,21,Rochette,Amby,Roughsedge,,3214 Pierstorff Center,"",Washington,District of Columbia,20099
5359866,7C,20,Lay,Rhys,Andrea,,4562 Sutherland Parkway,"",Iowa City,Iowa,52245
6818901,7C,23,Mar,Si,Kinavan,,62 Vahlen Junction,"",Fort Worth,Texas,76147
7732351,12,21,Tara,Lindie,Probetts,,46889 Melvin Place,"",Richmond,Virginia,23220
5223249,12,21,Graig,Davide,Mangam,,10868 Almo Place,Unit #75,Louisville,Kentucky,40293
9682252,7C,20,Alric,Marleah,Mountcastle,,94336 Green Alley,"",Houston,Texas,77260
1739994,7C,21,Johann,Lani,Chapman,,26896 Fuller Point,"",Lexington,Kentucky,40515
8070040,5,23,Sunny,Gretta,Delgado,,15083 Ronald Regan Crossing,"",Saint Petersburg,Florida,33731
1023512,7C,20,Valeria,Willie,Mitchenson,,64527 Shopko Center,"",West Palm Beach,Florida,33421
5211357,7C,21,Elwira,Lek,Illingworth,,1080 Oneill Street,"",Rochester,New York,14614
1651317,5,20,Harper,Sanders,Varren,,6645 Maple Wood Center,"",Rochester,New York,14646
8894856,5,23,Packston,Euphemia,Beckenham,,983 Heath Pass,"",Milwaukee,Wisconsin,53285
3780931,5,21,Tedda,Laure,Kearsley,,21 Merchant Center,"",Kalamazoo,Michigan,49048
2463697,12,23,Rakel,Cull,Tarbin,,05096 Kedzie Junction,"",Staten Island,New York,10305
8754096,5,23,Pris,Janeva,Ponte,,920 Oriole Road,Apartment 3,Seattle,Washington,98104
2259887,5,23,Maris,Sal,Rangall,,7 Gulseth Center,"",Tampa,Florida,33686
6978661,7C,23,Fae,Tammie,Fridlington,,0 Namekagon Hill,"",Milwaukee,Wisconsin,53234
2192248,7C,21,Alard,Grantham,Gookey,,7587 Hansons Pass,"",Lexington,Kentucky,40510
4667638,7C,20,Hurley,Miran,Orhrt,,186 Parkside Parkway,"",Springfield,Virginia,22156
3678320,5,20,Gilda,Mischa,Baroc,,3658 Summit Street,"",Corpus Christi,Texas,78415
6824457,12,23,Hendrik,Patrizia,Arrigo,,3707 Bultman Parkway,"",Winston Salem,North Carolina,27150
4938599,5,20,Evie,Bernadine,Puttick,,28 Wayridge Pass,"",Orlando,Florida,32830
2750029,7C,23,Ellynn,Astrix,Le feuvre,,50 Talmadge Alley,"",San Diego,California,92121
1018382,7C,23,Rivalee,Wendel,Strettle,,308 Becker Crossing,"",Washington,District of Columbia,20566
1247305,7C,21,Forester,Harriett,Place,,38106 Kedzie Hill,"",El Paso,Texas,79928
2369534,7C,23,Loretta,Morley,Boultwood,,62 Riverside Drive,"",Myrtle Beach,South Carolina,29579
6051047,12,23,Terrance,Margot,Timewell,,00 Meadow Vale Crossing,"",Lake Worth,Florida,33467
8399609,5,23,Sol,Kerr,Kleinerman,,458 Tomscot Plaza,"",Birmingham,Alabama,35285
8832041,7C,20,Romola,Lambert,Graveston,,04633 Banding Crossing,"",Jefferson City,Missouri,65105
7047373,12,21,Millisent,Farlie,Faldoe,,9 Commercial Crossing,"",Austin,Texas,78789
1853285,7C,21,Cass,Harley,Nozzolinii,,0 Crowley Terrace,"",Cleveland,Ohio,44177
5841178,7C,23,Davey,Clywd,Duguid,,6 North Lane,"",Boise,Idaho,83705
6710018,5,21,Booth,Kathye,Jump,,60245 Grover Drive,"",Gary,Indiana,46406
9541785,12,20,Nance,Danella,Goodin,,8 Esch Way,Unit #75,Lake Charles,Louisiana,70607
5756214,5,21,Silva,Esdras,Teaser,,152 Marquette Road,"",Biloxi,Mississippi,39534
1790019,5,21,Bess,Jamima,Scrancher,IV,2250 Summerview Alley,"",Columbia,South Carolina,29215
5192187,12,20,Lorne,Tome,O'Shee,,76022 Karstens Point,"",West Palm Beach,Florida,33411
7058694,5,21,Stavros,Karisa,Morrissey,,96924 Derek Parkway,"",Arlington,Texas,76004
1042760,12,21,Katinka,Felicity,Schwandner,,5141 Buhler Circle,"",Washington,District of Columbia,20470
2781268,12,23,Margaret,Kenny,Diloway,,13736 Lighthouse Bay Drive,"",Youngstown,Ohio,44505
6150106,12,21,Jorgan,Adrianna,Feechum,,59087 Holmberg Plaza,"",Scranton,Pennsylvania,18514
1398642,7C,21,Beatriz,Noam,Carlesso,,26498 5th Trail,"",Denver,Colorado,80243
4069494,7C,23,Berton,Dodi,Fishwick,,633 Orin Center,"",Chicago,Illinois,60641
5038418,12,23,Yorker,Heather,Strathdee,,91093 Meadow Valley Court,"",Fort Worth,Texas,76198
2487590,7C,20,Kimberley,Lucila,Curwen,,51 Chinook Alley,"",Anniston,Alabama,36205
9513258,7C,23,Ella,Judy,Clewett,,75152 Thierer Trail,"",Detroit,Michigan,48224
4379336,12,23,Else,Abrahan,Rothery,,59 North Terrace,"",Albany,New York,12205
8181812,5,20,Ellie,Teodoro,O'Lennane,,634 Mccormick Hill,"",Atlanta,Georgia,30311
9092543,12,23,Nero,Lionel,Gahagan,,03 Mccormick Center,"",Lubbock,Texas,79410
4399331,12,23,Ester,Daryn,Hackforth,,52074 Huxley Trail,"",San Antonio,Texas,78296
2923138,5,21,Tanitansy,Amby,Simionato,,4556 Manitowish Court,"",New York City,New York,10203
3612957,7C,21,Modesty,Frankie,Drable,,94 Elka Court,"",El Paso,Texas,88584
8685096,7C,20,Lanae,Helli,Dumphries,,2039 Londonderry Court,"",Farmington,Michigan,48335
7084154,12,23,Birdie,Norbie,Eggleston,III,54 Sundown Drive,"",Trenton,New Jersey,08603
1774616,12,20,Chrissy,Veda,Roughsedge,,6 Onsgard Plaza,"",Edmond,Oklahoma,73034
9099199,12,21,Jason,Roanna,Matchett,,15171 Erie Park,"",West Hartford,Connecticut,06127
5473574,12,20,Tab,Aldo,Vacher,,63 Magdeline Hill,"",Van Nuys,California,91499
7897891,5,20,Francesco,Jesse,Winborn,,43 Russell Trail,"",Fredericksburg,Virginia,22405
5598471,5,20,Ambrosius,Wiatt,Kalb,,55394 Dixon Alley,Apartment 3,Tacoma,Washington,98447
9451451,12,23,Nollie,Verna,Francecione,,40919 Bashford Plaza,"",Mountain View,California,94042
7335329,7C,23,Bellina,Cassie,Lindop,,697 Southridge Trail,"",Buffalo,New York,14225
1042158,5,20,Katy,Benjy,Shewry,,2 Fairfield Center,"",Peoria,Illinois,61656
8072754,5,23,Elmira,Rodolphe,Durand,,805 Graedel Crossing,"",Madison,Wisconsin,53705
4440304,7C,23,Lilith,Lauren,Seawright,,7865 Crownhardt Crossing,"",New Castle,Pennsylvania,16107
9364834,12,20,Mitchel,Natty,Stuehmeyer,,118 Chinook Drive,"",Houston,Texas,77040
2776679,12,23,Carlyn,Fleming,Jurgenson,,74 Loeprich Pass,"",Arlington,Texas,76096
2763019,7C,21,Sam,Buckie,Deverill,,2 Almo Circle,"",Boston,Massachusetts,02298
3813700,7C,21,Kareem,Mozelle,Vasyunkin,,78599 Messerschmidt Plaza,Unit #75,New York City,New York,10060
9594798,5,21,Shanan,Wakefield,Boyan,,2 North Hill,"",Waterbury,Connecticut,06726
4057948,7C,20,Leonhard,Engracia,Dives,,1 Jenifer Way,"",Springfield,Virginia,22156
4811188,7C,23,Jaimie,Brana,Bednall,,44321 Westend Point,"",Cleveland,Ohio,44185
7645194,12,23,Timothee,Rhoda,Westgate,,9 Fairfield Center,"",Charlotte,North Carolina,28235
5862705,12,23,Kiri,Beatrisa,Endrighi,,282 Steensland Point,"",Loretto,Minnesota,55598
8212099,12,23,Rona,Esra,Whittlesey,,26346 Pleasure Hill,"",Los Angeles,California,90005
3103313,5,21,Eartha,Dorris,Alebrooke,,93 6th Hill,"",Saint Louis,Missouri,63136
2784365,5,20,Holden,Kylie,McNeillie,,290 Stoughton Junction,"",Spartanburg,South Carolina,29319
7717747,7C,21,Hanni,Claude,Braine,,30187 Forster Street,"",Denver,Colorado,80209
3173207,5,23,Lorrayne,Brooks,Oldam,,86213 Southridge Crossing,"",New Haven,Connecticut,06538
3480877,7C,21,Conroy,Skip,Olenin,,9 Susan Drive,"",Washington,District of Columbia,20575
1028328,5,21,Dell,Mayor,Ridges,,0054 Delladonna Road,"",Worcester,Massachusetts,01654
9324474,7C,21,Correy,Kaye,Rickardsson,,422 Canary Circle,"",Sacramento,California,94230
3325628,12,21,Tamqrah,Gretta,Snoxill,,5 Scoville Alley,"",Pueblo,Colorado,81005
2561701,12,21,Fionna,Nadean,Olman,,718 Merry Terrace,"",Milwaukee,Wisconsin,53285
8579840,12,20,Lacy,Gilemette,Kermannes,,05348 Warner Drive,"",Camden,New Jersey,08104
6819012,5,21,Reese,Maryann,Redler,,0782 Cody Pass,Unit #75,Inglewood,California,90305
4263994,5,23,Madelon,Jodi,Maden,III,7 Garrison Center,"",Portland,Oregon,97232
5290346,7C,21,Jolynn,Edna,Orvis,,122 Anthes Plaza,"",Meridian,Mississippi,39305
2572013,12,23,Karine,Madison,Cocci,,14622 Hollow Ridge Road,"",Toledo,Ohio,43635
7108807,7C,21,Carlyn,Valenka,le Keux,,15 Cambridge Street,"",Santa Cruz,California,95064
3974113,7C,23,Melisa,Melantha,Rathjen,,36 Hudson Hill,"",Inglewood,California,90305
1857941,12,21,Arnoldo,Ronica,Howford,,62879 Meadow Ridge Terrace,Apartment 3,San Antonio,Texas,78291
2131950,7C,23,Fidela,Judye,Amiss,,84 Cody Junction,Unit #75,Wichita,Kansas,67205
7951997,12,21,Karine,Lorenzo,Bleakley,,90589 Northland Hill,"",Corona,California,92883
6619088,7C,23,Bonni,Anett,Minguet,,5 Lighthouse Bay Road,Unit #75,New York City,New York,10045
6749920,7C,23,Hayward,Juieta,Culpin,,92 Hermina Parkway,"",Pueblo,Colorado,81010
6672579,7C,21,Hyacinthia,Loutitia,Finlan,,6660 Shelley Place,"",Fairfax,Virginia,22036
9887441,7C,21,Bab,Gus,Mundy,,39 New Castle Street,"",Fayetteville,North Carolina,28305
3106294,5,23,Harland,Janelle,Dulany,,5 Manitowish Alley,"",Brea,California,92822
5276716,7C,20,Gwyneth,Jania,Tourne,,621 Leroy Court,"",Worcester,Massachusetts,01610
8863266,12,20,Roseline,Alister,Spurgeon,,9 Towne Drive,"",Winter Haven,Florida,33884
4663796,12,20,Nicolis,Ulysses,Liddicoat,,6 Golden Leaf Plaza,"",Austin,Texas,78715
8000544,7C,20,Kalil,Doria,Kinleyside,,07 Coleman Center,"",Mc Keesport,Pennsylvania,15134
1673285,12,21,Ted,Tommie,Sydall,,715 Arrowood Trail,"",Lafayette,Louisiana,70505
7352113,5,21,Kesley,Katha,Shankland,,756 Pearson Way,"",Waco,Texas,76711
8089904,7C,21,Aaren,Blanche,Sodo,,18447 Birchwood Trail,"",High Point,North Carolina,27264
4264092,7C,23,Rodrick,Gerardo,Camocke,,722 Crowley Way,"",Saint Louis,Missouri,63136
9527850,5,20,May,Van,Schaben,,61 Lake View Crossing,"",Omaha,Nebraska,68117
7421324,5,23,Davy,Ketti,Forrestor,,7 Dovetail Crossing,"",Houston,Texas,77095
3617412,12,21,Linnie,Darleen,Corrado,,0763 Dottie Way,"",Lancaster,California,93584
8358125,5,20,Nichole,Geoff,Yokel,,93338 Eggendart Alley,"",El Paso,Texas,79905
6555709,12,23,Julita,Ira,MacCrossan,,8154 Hermina Pass,"",Mount Vernon,New York,10557
4818430,7C,23,Elisabetta,Lyle,Robathon,,961 Springview Parkway,"",Miami,Florida,33175
3151387,7C,23,Dugald,Ted,Baildon,,9 Drewry Court,Apartment 3,Bowie,Maryland,20719
6517824,12,23,Efren,Minda,Beneyto,,65400 Toban Road,"",Santa Cruz,California,95064
3191862,5,21,Shayne,Shannon,Beddo,,98897 Morrow Lane,"",San Diego,California,92145
1441424,5,20,Ally,Rosetta,Lingner,,0697 American Alley,"",Levittown,Pennsylvania,19058
8194877,5,23,Aura,Letty,Martinek,,73086 Mallory Crossing,"",Tacoma,Washington,98417
6812200,7C,23,Jennine,Hildegarde,Lukacs,,9775 Victoria Street,Unit #75,Albany,New York,12237
6796020,5,23,Pier,Adriane,Rawling,,0 Claremont Court,"",Tampa,Florida,33620
5222169,12,21,Bride,Katine,Regis,,67 Drewry Place,"",Reno,Nevada,89505
3474125,7C,20,Chadd,Egon,Dizlie,,22924 Tennyson Plaza,"",Sacramento,California,94280
6943099,12,23,Iormina,Ben,Barkley,,066 Badeau Circle,"",Tampa,Florida,33694
5590444,7C,20,Raimundo,Olenolin,Mussington,,4085 Jackson Street,"",Baton Rouge,Louisiana,70815
5446849,12,23,Pia,Corbett,Drew-Clifton,,67 Prairieview Lane,"",Gadsden,Alabama,35905
5299902,12,21,Jourdain,Kelila,Bailes,,6570 Crowley Street,"",Springfield,Illinois,62711
9010689,5,21,Thelma,Jessalin,Harlowe,,067 Kennedy Center,"",Pittsburgh,Pennsylvania,15215
9304319,12,20,Rogers,Garret,Byres,,67981 Nova Court,Unit #75,Pasadena,California,91103
5360703,5,20,Helge,Phaidra,Monkman,Jr,8 Mallory Avenue,"",Birmingham,Alabama,35215
2518466,7C,20,Hamil,Adore,Kiddye,,95 Prentice Avenue,"",San Diego,California,92160
3709902,5,21,Teddy,Belvia,McKniely,,6 Dexter Way,"",Rockville,Maryland,20851
6069518,5,20,Cordelia,Helena,Perulli,,92877 Granby Point,"",Philadelphia,Pennsylvania,19172
6432739,12,21,Anitra,Craggy,Arent,,490 Judy Parkway,Unit #75,Montgomery,Alabama,36134
4455308,12,21,Rance,Shannon,Renak,,27852 Corry Street,Apartment 3,Newton,Massachusetts,02162
7554082,7C,20,Daniela,Colan,Chaikovski,,36910 Lerdahl Circle,"",Bakersfield,California,93305
5409304,7C,20,Ibbie,Cornie,Wrey,,25545 Mandrake Circle,"",Pasadena,California,91117
4134107,12,23,Leonhard,Jard,Davis,,85 Bonner Terrace,"",Charleston,South Carolina,29403
7462893,7C,23,Tomas,Sigmund,Bracer,,796 Scoville Junction,"",Boca Raton,Florida,33499
1444855,12,23,Julina,Denver,Hampson,,7 Sauthoff Junction,"",Hartford,Connecticut,06183
3048115,5,20,Codee,Whitney,Beringer,,122 Hermina Road,"",Washington,District of Columbia,20016
7650100,7C,20,Loren,Bernadette,Gatlin,,5 Ridge Oak Plaza,"",Canton,Ohio,44720
9431314,7C,21,Yettie,Jasmine,Pawelski,,5779 Bultman Trail,"",Warren,Ohio,44485
7582504,7C,20,Dillon,Art,Jenne,,0 Mitchell Lane,"",Baltimore,Maryland,21275
5822519,12,20,Lulita,Bron,Dellenbroker,,584 Crownhardt Parkway,"",Minneapolis,Minnesota,55436
3660117,12,21,Dyan,Nanon,Boeter,,5 Anthes Point,"",Bryan,Texas,77806
8380584,5,21,Gilberta,Nathaniel,Donaldson,,751 Lien Park,"",Portland,Oregon,97201
1753984,5,21,Vickie,Erl,Schultze,,97077 Dwight Street,"",Chattanooga,Tennessee,37450
8572596,12,20,Isador,Goober,Deeble,,8337 Buell Drive,"",Cleveland,Ohio,44191
3317723,7C,21,Redford,Vivi,Loomes,,69069 Granby Pass,Apartment 3,Akron,Ohio,44329
1770872,12,20,Addison,Salvatore,Okie,,124 Hoffman Parkway,"",Cleveland,Ohio,44185
7093519,7C,23,Delmor,Avigdor,Summergill,Jr,283 Bay Alley,Apartment 3,Boca Raton,Florida,33487
9627736,12,23,Murvyn,Tarrah,Spears,,1 Oak Crossing,"",Raleigh,North Carolina,27626
7191586,12,23,Royal,Claudina,Vedyaev,Sr,4 Elmside Drive,"",Pittsburgh,Pennsylvania,15220
1995870,7C,23,Wileen,Mellisent,Soonhouse,,90 Northridge Parkway,"",Houston,Texas,77065
6040960,5,20,Lee,Martita,Pollastrone,,60 Ridgeway Terrace,Unit #75,Fort Collins,Colorado,80525
2769385,5,23,Mae,Meara,Oloshin,,155 Steensland Road,"",Clearwater,Florida,34615
9939519,7C,20,Dolley,Morse,Skamell,,576 Emmet Court,"",Albuquerque,New Mexico,87180
2519762,5,23,Wald,Kaye,Hauxwell,,2530 Norway Maple Trail,"",Milwaukee,Wisconsin,53263
3640476,5,20,Flemming,Keely,Spence,,92164 School Crossing,"",Montgomery,Alabama,36195
3443208,12,21,Mirabelle,Lester,Armsby,,91 Holy Cross Pass,"",Stamford,Connecticut,06905
1677836,5,21,Kassey,Danny,Sirr,,7683 Riverside Circle,"",Toledo,Ohio,43656
9140292,7C,21,Calv,Alexei,Mateev,,1068 Dapin Road,"",New Orleans,Louisiana,70187
9516894,12,21,Minette,Wayland,Jumonet,,1060 Burrows Drive,Unit #75,Portland,Oregon,97211
2648989,5,21,Arron,Fons,Ramsell,,7590 Dwight Court,"",El Paso,Texas,88558
2042119,12,23,Creigh,Adena,Penrice,,64014 Stuart Alley,"",Olympia,Washington,98506
8507431,7C,20,Aubine,Felice,Coots,,088 Nelson Hill,"",Boca Raton,Florida,33499
8084581,5,21,Shelly,Vinson,Fleeman,,45 Dahle Point,"",Houston,Texas,77090
3919438,12,20,Hephzibah,Serge,Hudspeth,,9 Golf Street,"",Baltimore,Maryland,21290
6796126,7C,23,Orv,Latashia,Fedorski,,36936 Rockefeller Place,"",Little Rock,Arkansas,72222
3696047,5,20,Thaxter,Aggy,Jiracek,,67660 Messerschmidt Place,"",Lake Worth,Florida,33467
6118068,7C,20,Cristie,Edgar,Dary,,85 Shoshone Hill,"",San Antonio,Texas,78215
1996400,5,23,Julia,Harmonie,Bum,,3 Stoughton Terrace,"",Seattle,Washington,98148
7683162,12,20,Westley,Massimo,Cockley,,2904 Derek Junction,Unit #75,Buffalo,New York,14276
1046853,7C,21,Dotty,Annis,Renehan,,28951 Lake View Center,"",Santa Fe,New Mexico,87592
6153070,12,23,Claudetta,Pren,Roddick,,832 Mallard Street,"",Spokane,Washington,99205
9978619,12,20,Esdras,Benjie,Clemmensen,,13419 Comanche Parkway,"",Everett,Washington,98206
1345354,5,23,Mela,Liane,Trehearne,,25452 Glendale Center,"",Shreveport,Louisiana,71130
3898318,5,23,Forrest,Olive,Grinikhin,,5 Hazelcrest Court,"",San Jose,California,95128
6524482,7C,23,Gregoor,Benoite,Hagley,,47 Pine View Plaza,"",Arlington,Virginia,22205
6115377,7C,23,Bay,Farrell,Halwill,,7284 Truax Point,"",Los Angeles,California,90045
8890817,7C,20,Joelynn,Daffie,Surgeon,,2399 Straubel Terrace,"",Tulsa,Oklahoma,74184
4571591,12,20,Lora,Rem,Starkey,,0095 Ronald Regan Hill,"",Irving,Texas,75062
7604616,7C,23,Denyse,Shea,Northern,,35 Killdeer Alley,"",Phoenix,Arizona,85005
9707421,5,23,Ninnetta,Vilhelmina,Huby,,0 Arizona Terrace,"",Jeffersonville,Indiana,47134
3183237,12,23,Klemens,Gannie,Gofton,,739 Blaine Terrace,"",Providence,Rhode Island,02905
4658475,7C,23,Mayne,Valery,Chinge,,0 Raven Park,"",Pinellas Park,Florida,34665
8016965,12,20,Codee,Alika,Posthill,II,4 Lunder Trail,Unit #75,Pittsburgh,Pennsylvania,15210
4422634,5,20,Donny,Pamela,Kopmann,,42 Namekagon Pass,"",Fargo,North Dakota,58122
5967691,7C,21,Jeno,Bee,Albisser,,93007 Beilfuss Terrace,"",Hartford,Connecticut,06152
3544459,5,21,Tedi,Colet,Swallow,,662 Troy Junction,"",Boca Raton,Florida,33499
2205402,5,23,Valry,Rossie,Ciabatteri,,8721 Lillian Street,"",Indianapolis,Indiana,46231
8732825,7C,21,Wayne,Ella,Cheeseman,Sr,7 Beilfuss Street,"",Jacksonville,Florida,32244
6501239,12,20,Dewitt,Meggi,Amar,,08011 Ruskin Road,"",Philadelphia,Pennsylvania,19184
3016467,12,20,Ariel,Jessie,Bennison,,15 Springview Center,"",Montgomery,Alabama,36109
3405383,12,21,Maurice,Maure,Sailor,,08 Lakeland Pass,"",Toledo,Ohio,43666
9468275,7C,20,Faina,Kaitlynn,Wintour,,4 Gale Drive,"",Tulsa,Oklahoma,74108
5246132,5,21,Norina,Ken,Cussons,,615 Del Sol Pass,"",Austin,Texas,78759
8061430,5,23,Bel,Fianna,Clissell,,6 Clyde Gallagher Park,"",Winston Salem,North Carolina,27116
8023170,7C,20,Meara,Ignacius,Roll,,25 Sutteridge Terrace,"",Modesto,California,95397
8056844,7C,23,Catha,Renault,Mattheeuw,,5865 Eagle Crest Terrace,"",Albuquerque,New Mexico,87180
9292178,5,20,Saw,Perice,Creasey,,356 Dwight Terrace,"",Burbank,California,91520
3672980,12,23,Aloysius,Danika,Beebe,,07 Farmco Crossing,"",San Antonio,Texas,78278
1404795,5,23,Nil,Adrianna,Minette,,777 Hayes Terrace,"",Denver,Colorado,80204
8286234,5,23,Genna,Laurie,Gurdon,,68609 Nelson Crossing,"",Mountain View,California,94042
3239397,12,20,Bessy,Livvyy,Wessel,,4215 Fordem Court,"",Los Angeles,California,90015
5627551,5,20,Charity,Jemimah,Youster,,80631 Pepper Wood Road,"",Fort Lauderdale,Florida,33305
4207464,12,20,Yelena,Pierre,Preist,,72003 Pepper Wood Center,"",Washington,District of Columbia,20580
3830732,12,21,Tobye,Maxy,Petteford,,507 Brown Park,"",Portsmouth,New Hampshire,03804
5848231,7C,23,Gail,Renault,Scaddon,,556 Novick Terrace,"",Charleston,West Virginia,25326
8983657,12,20,Ramonda,Hillier,Rosen,,811 Kingsford Hill,"",El Paso,Texas,79950
3906003,5,20,Beltran,Sephira,Bernli,,34187 Superior Parkway,"",Tacoma,Washington,98442
3350290,5,21,Sean,Keelby,Trask,,9391 Chive Hill,"",Brooklyn,New York,11205
5706346,5,23,Paulette,Deni,Smalman,,2794 Kingsford Road,"",Chicago,Illinois,60641
7304643,7C,20,Ashley,Benito,Reddington,,3 Kenwood Avenue,"",Winston Salem,North Carolina,27150
3040378,5,21,Bonita,Johnna,Jaggs,,80 Norway Maple Avenue,"",Seminole,Florida,34642
7473517,7C,21,Imogene,Emelina,Brason,,06742 Lindbergh Pass,"",El Paso,Texas,88558
3608378,7C,20,Giacopo,Humberto,Lewsy,,409 Havey Crossing,"",Waterbury,Connecticut,06726
5695481,12,20,Benny,Delora,Ryle,,11845 Acker Lane,"",Charlotte,North Carolina,28230
4648685,7C,23,Richie,Titos,Voller,,94189 Utah Alley,"",Tucson,Arizona,85725
5481900,5,23,Florina,Uri,Salmon,,018 Debs Trail,"",Wichita Falls,Texas,76310
4505982,7C,20,Worthy,Fitz,O'Cannan,,617 Harbort Parkway,"",Mobile,Alabama,36622
8463476,5,21,Lida,Gifford,Ridgers,,7585 Vernon Trail,"",Baltimore,Maryland,21281
8344305,12,20,Andy,Eduard,Hunnicutt,,257 Prairie Rose Plaza,"",Sacramento,California,95865
9730205,12,20,Conroy,Joshua,Bastin,,23338 Katie Place,"",Detroit,Michigan,48267
3722711,12,20,Lorene,Obadiah,Wylie,,82 Chinook Pass,"",Salt Lake City,Utah,84115
5458779,5,23,Fan,Anna-diana,Koppke,,1274 Jenifer Pass,"",Albuquerque,New Mexico,87110
6908388,7C,21,Zitella,Jackelyn,Smithend,,044 Truax Center,Unit #75,Dayton,Ohio,45408
2937900,12,23,Kristien,Tandi,Baal,,367 Oakridge Lane,"",Des Moines,Iowa,50305
2513798,12,23,Alexandrina,Natalina,Brogan,,8 Petterle Terrace,"",Pittsburgh,Pennsylvania,15250
6130567,12,23,Kristal,Hy,Deverell,,7 Kennedy Pass,"",Knoxville,Tennessee,37931
3782462,12,20,Ferris,Renaldo,Crowhurst,,887 Northwestern Drive,"",Cleveland,Ohio,44185
7242318,5,23,Ilaire,Kandy,Arkcoll,,724 Service Road,"",Washington,District of Columbia,20546
2459812,12,20,Jorrie,Mikey,Borland,,0683 Dahle Crossing,"",El Paso,Texas,79950
2801636,5,20,Nerty,Timmy,Avard,,53472 Donald Circle,Unit #75,Philadelphia,Pennsylvania,19104
5883985,12,20,Kaile,Annemarie,Crippen,,9 Blackbird Court,"",Orange,California,92867
1403420,12,20,Cristiano,Mathilda,Haensel,,4 Laurel Drive,"",Houston,Texas,77050
5504043,12,20,Janifer,Town,Mutch,IV,4146 Hovde Park,"",South Lake Tahoe,California,96154
7788959,7C,20,Ralina,Gene,Habbin,Sr,78 Utah Terrace,"",Bakersfield,California,93399
7909880,5,20,Aline,Stacie,Waby,,04 Bluejay Point,"",Phoenix,Arizona,85030
9037368,5,20,Cherry,Dougie,Semrad,,30 Meadow Vale Junction,"",Harrisburg,Pennsylvania,17110
4009324,5,20,Alley,Thom,Stronach,,414 Continental Junction,"",Schenectady,New York,12325
5719070,5,20,Cordelia,Darsie,Bloore,,6 Basil Parkway,"",Clearwater,Florida,33758
3193543,5,23,Cletis,Tadd,Elliman,,57 Sloan Lane,"",Charleston,West Virginia,25336
7547991,7C,23,Lavina,Mariya,Morrissey,,71 Maryland Place,Unit #75,Tacoma,Washington,98464
5485610,7C,20,Marty,Jessamyn,Depka,,23240 Logan Crossing,"",Birmingham,Alabama,35210
6498760,12,21,Danielle,Aubine,Aldiss,,43 Laurel Trail,"",Palo Alto,California,94302
2939537,12,23,Bale,Kissiah,Silverstone,,4 Stephen Terrace,Apartment 3,Memphis,Tennessee,38109
7797701,12,23,Ruggiero,Shalne,Bowne,,945 Bobwhite Place,"",Chicago,Illinois,60614
5150072,12,20,Jordanna,Randene,Petegrew,,319 Rigney Parkway,"",Tucson,Arizona,85705
6874792,12,23,Egbert,Brew,Harragin,,90737 Marquette Junction,"",Kissimmee,Florida,34745
5998086,7C,21,Rudiger,Karney,Penhalurick,,8678 Glendale Parkway,"",San Francisco,California,94137
7126630,12,20,Yancy,Artus,Staker,,6500 Rockefeller Avenue,"",Houston,Texas,77223
6489275,5,20,Rudy,Adrianna,Wainman,,6810 Starling Crossing,"",Charleston,West Virginia,25336
9561638,7C,20,Kennie,Leonie,Kirstein,,415 Columbus Parkway,"",Peoria,Illinois,61635
9593843,12,21,Rolland,Tristan,McFaul,,77961 International Point,"",Vancouver,Washington,98687
4947875,5,20,Joachim,Gregg,Farden,,44651 Cascade Terrace,"",Dallas,Texas,75260
2977376,5,21,Felice,Pennie,Dewan,,19 Westport Park,"",Arlington,Virginia,22225
8299020,5,21,Chlo,Lanie,Whitebread,,79 Corben Park,"",Reno,Nevada,89550
4962152,5,20,Nicolette,Friedrich,MacIver,,37 Gerald Crossing,"",Washington,District of Columbia,20370
8254184,12,21,Dyanne,Alex,Vogelein,,070 Village Green Crossing,"",Kansas City,Missouri,64149
7685184,5,21,Carin,Sophia,de Najera,,6 Harbort Center,"",Burbank,California,91520
1753116,5,23,Corene,Hugibert,Pittoli,,3089 Walton Center,"",Albany,New York,12255
1881860,7C,21,Ave,Filippo,Pinkett,,8 Dawn Pass,"",Kingsport,Tennessee,37665
2508227,12,23,Darren,Marissa,Sobieski,,201 5th Hill,"",Vienna,Virginia,22184
3323485,5,21,Darryl,Rustin,Alwell,,80301 Harper Point,"",Reading,Pennsylvania,19605
5503669,5,20,Farrell,Darcy,Yeeles,,87 Barnett Lane,"",Dallas,Texas,75358
7951388,12,23,Alaine,Paige,Lumsdaine,,2 Stoughton Circle,"",Atlanta,Georgia,30323
9004800,5,21,Rosene,Dimitri,Jzhakov,,5 Johnson Court,"",White Plains,New York,10633
1794969,7C,21,Elysha,Chrotoem,MacAskill,,1 Waxwing Place,"",New Haven,Connecticut,06520
3536873,5,20,Gaye,Augie,Dunsmore,,37443 Kenwood Court,"",Kansas City,Missouri,64142
5443631,5,23,Torrin,Demetria,Murie,,616 Scott Plaza,"",Denton,Texas,76205
3492407,7C,21,Stirling,Hendrik,Pittam,,93 Caliangt Parkway,"",Beaumont,Texas,77713
4789121,7C,23,Trix,Terra,Hess,,152 Marquette Trail,"",Oakland,California,94622
1121519,7C,23,Etheline,Vite,Wedgbrow,,724 Randy Place,"",Louisville,Kentucky,40256
3547857,5,20,Jake,Arlina,Ehrat,,9 Longview Court,"",Atlanta,Georgia,30356
2778050,5,20,Vidovic,Lynna,Sara,,8 Brown Circle,"",Murfreesboro,Tennessee,37131
1261288,7C,20,Emlen,Saudra,Pactat,,78 Kennedy Trail,"",Pomona,California,91797
6466024,12,20,Dorette,Debbi,Darko,,62 Redwing Pass,"",Rockville,Maryland,20851
5529669,5,21,Benoite,Anni,Marcam,,03 Calypso Road,"",Indianapolis,Indiana,46295
7684994,5,20,Bernette,Northrup,Barajaz,,54 Kings Street,"",Waco,Texas,76705
4805182,7C,23,Emanuele,Inglebert,Semiraz,,9922 Erie Hill,"",Fort Myers,Florida,33913
8746003,7C,20,Janna,Courtnay,Stocking,,87196 Porter Avenue,"",Minneapolis,Minnesota,55458
3999584,5,21,Bourke,Emlyn,Cescotti,,44 Maryland Crossing,"",Detroit,Michigan,48206
6661642,7C,21,Trish,Dacey,Dalton,,362 Buena Vista Place,"",Springfield,Missouri,65810
4428478,7C,20,Romonda,Hector,Dargie,,2615 Cody Street,"",Hagerstown,Maryland,21747
5592441,7C,21,Madalyn,Paolo,Frondt,,5 Rieder Street,"",Memphis,Tennessee,38119
1879089,7C,20,Chariot,Connie,Cansdell,,116 Main Terrace,"",Jacksonville,Florida,32209
8055466,7C,21,Bobbette,Clerkclaude,Matthis,,943 Bashford Place,"",Pasadena,California,91103
9037937,12,20,Abraham,Julienne,Stampe,,45220 Marcy Pass,"",New York City,New York,10292
8581121,5,23,Fran,Gregor,Measor,,76 Northwestern Point,"",Birmingham,Alabama,35225
3005580,12,21,Nanine,Tabbie,Blaskett,,148 Kensington Hill,"",Green Bay,Wisconsin,54305
7309947,7C,23,Lesly,Elsi,Kembry,,4 Dovetail Road,"",Garden Grove,California,92844
5843700,12,23,Maryrose,Mordy,Ivanshintsev,,1 Hoard Road,"",Young America,Minnesota,55551
8704425,12,23,Tiena,Kimmie,Furmenger,,6 Tomscot Trail,Unit #75,Salt Lake City,Utah,84199
5239412,12,20,Magdalena,Fidel,Murtell,,2813 Kinsman Junction,"",San Antonio,Texas,78205
6903425,12,20,Keelia,Francyne,Minghella,,6097 Lillian Trail,Unit #75,Springfield,Virginia,22156
2744702,5,23,Ker,Arley,Philippon,,02 Melody Lane,"",Irving,Texas,75062
6576496,5,21,Farris,King,Gerant,,7135 Oneill Crossing,Unit #75,Tulsa,Oklahoma,74149
5337400,5,21,Madella,Gail,Senett,,07600 Hoepker Plaza,"",Dallas,Texas,75372
7252840,7C,23,Jo,Kurtis,Hrinchishin,,2 Meadow Valley Plaza,"",Alpharetta,Georgia,30022
6359068,7C,20,Kamilah,Emma,Ragborne,,49226 Butternut Parkway,"",Springfield,Massachusetts,01152
4419264,7C,21,Batholomew,Berky,Blaschke,,1746 Ilene Hill,"",Bellevue,Washington,98008
2194860,7C,21,Maris,Gene,Danhel,,3 Randy Center,"",Las Vegas,Nevada,89160
2267790,12,21,Delainey,Ardella,Comins,,9 Kim Terrace,"",New York City,New York,10125
3341185,7C,23,Rozanna,Wendy,Keilloh,,83622 Springs Place,"",Kansas City,Kansas,66105
6622324,7C,23,Trevar,Herb,Oldfield,,21 Schmedeman Terrace,"",Santa Ana,California,92725
8479926,7C,21,Angil,Emmott,O'Fielly,,4 Killdeer Alley,"",Spartanburg,South Carolina,29319
4216861,5,23,Cad,Leonhard,Byllam,,58 Hanson Street,"",Saint Louis,Missouri,63150
5951690,5,23,Tymothy,Averyl,Benedetti,,64 Lukken Alley,Unit #75,Huntsville,Texas,77343
1671062,5,23,Riordan,Isidor,Conradsen,,675 Sutteridge Point,"",Orlando,Florida,32885
1077620,5,21,Dagny,Aprilette,Moutray Read,,4 Pleasure Parkway,"",Reno,Nevada,89550
9821506,7C,21,Hildy,Taylor,Mullaly,,1 Memorial Plaza,"",Orlando,Florida,32854
7846461,5,21,Belle,Jamil,Tarling,,5 Killdeer Junction,"",Corpus Christi,Texas,78410
2611910,7C,23,Felicia,Lindy,Cowan,,77 Carey Parkway,"",Kansas City,Missouri,64109
7457542,7C,21,Ulysses,Goldarina,Oak,,603 Steensland Parkway,"",Albany,New York,12227
4824075,5,23,Kathi,Kirbee,Fairhall,,9191 Schmedeman Point,"",Springfield,Illinois,62711
3325696,7C,23,Naomi,Marchall,Vlach,IV,6592 Barnett Park,"",Louisville,Kentucky,40256
7736645,5,21,Oneida,Izak,Holsall,,44412 Dawn Road,"",West Palm Beach,Florida,33421
6985175,12,20,Marj,Sammie,Gerardeaux,,71 Crowley Hill,"",San Bernardino,California,92424
4275397,7C,20,Leoline,Anestassia,Tanton,,11 Butterfield Point,"",Cincinnati,Ohio,45243
6961581,7C,23,Coralie,Skipper,Polland,,20284 Annamark Center,"",North Las Vegas,Nevada,89036
9734408,5,23,Bea,Thomasina,Vinnicombe,,61 Oak Valley Drive,"",Peoria,Illinois,61614
9262356,7C,23,Caron,Ernie,Greggor,,32 Orin Street,"",Naples,Florida,33963
4337355,7C,23,Aurelea,Clerkclaude,Sorrill,,3052 Transport Street,"",Miami,Florida,33261
2358477,5,21,Noland,Lari,Ewles,,054 American Plaza,"",Panama City,Florida,32405
2980012,12,23,Erin,Base,Burstowe,,61339 Sage Parkway,"",Washington,District of Columbia,20231
4602509,5,21,Latrena,Michaela,Poor,,470 Independence Lane,Apartment 3,Saint Paul,Minnesota,55166
5535901,12,21,Nathaniel,Joli,Currum,,22 Porter Street,Unit #75,San Jose,California,95123
7233753,12,23,Frazier,Alexandra,Mitchelmore,,7 Memorial Center,"",Young America,Minnesota,55551
7503470,7C,21,Robenia,Ariel,McSperrin,,6 Bashford Court,"",Houston,Texas,77045
6668590,7C,23,Dennison,Simone,Andren,,74489 Judy Crossing,"",Pittsburgh,Pennsylvania,15286
7125520,5,20,Nikolaus,Ingeborg,Stonehewer,IV,360 Havey Alley,Unit #75,Dayton,Ohio,45454
6815985,5,20,Lynea,Willow,Hinchcliffe,,5 Sommers Drive,"",Tallahassee,Florida,32314
2831284,7C,23,Blisse,Ferdinand,Parsisson,,5298 Roxbury Place,Apartment 3,Shawnee Mission,Kansas,66276
9828008,7C,20,Karlyn,Layton,Du Plantier,,42 Becker Center,"",El Paso,Texas,88584
2936128,7C,23,Ferrell,Ara,Eble,,58897 Tennyson Drive,"",North Port,Florida,34290
3759107,5,23,Frederik,Deeann,Manicomb,,56389 Fairview Drive,Apartment 3,Dallas,Texas,75226
9030408,12,23,Ginny,Sib,Alekseev,,689 Huxley Junction,"",Shawnee Mission,Kansas,66215
2023921,7C,23,Florian,Neila,McCann,,482 Graedel Alley,"",Gaithersburg,Maryland,20883
5292487,12,23,Ringo,Delano,Glasby,,7519 Wayridge Road,"",Omaha,Nebraska,68197
4760208,7C,21,Wilow,Shurwood,Dohmer,,93 Express Park,"",Pittsburgh,Pennsylvania,15240
3999490,12,23,Michele,Basilio,Dundredge,,73 Twin Pines Park,"",Utica,New York,13505
3708665,12,20,Burr,Rawley,Josephoff,,8150 Norway Maple Place,Unit #75,Denver,Colorado,80279
4196128,7C,20,Chaim,Morgan,Hackly,,02 Green Ridge Point,"",Worcester,Massachusetts,01654
6035643,5,21,Johan,Erika,Kikke,,2061 Declaration Parkway,"",Orlando,Florida,32808
2593005,7C,23,Janetta,Marcelo,Peyzer,,91 Fordem Trail,"",Long Beach,California,90840
3017269,12,23,Alberik,Gweneth,Knatt,IV,1 Almo Pass,"",Waterbury,Connecticut,06705
1796499,5,20,Winfred,Chlo,Adamec,,1106 Bartillon Lane,"",San Jose,California,95128
2095757,5,20,Kelcie,Ivett,Bogey,,95925 Glacier Hill Way,"",Killeen,Texas,76544
1142207,12,23,Olia,Ingram,Gowen,,49 Raven Lane,"",Indianapolis,Indiana,46202
9673509,12,21,Gino,Tucker,Nealey,,19164 Raven Circle,"",Monroe,Louisiana,71213
2111298,5,23,Lottie,Fredrika,Kornousek,,5962 Esker Plaza,"",Houston,Texas,77234
9275699,12,23,Sauveur,Morty,Slade,III,6 Truax Court,"",Lexington,Kentucky,40581
3004858,7C,23,Flory,Julita,Bradane,,244 Brickson Park Crossing,Unit #75,Orlando,Florida,32835
4290360,5,23,Adelaida,Heall,Cashman,,4032 Portage Center,"",Saginaw,Michigan,48609
4872760,7C,23,Dudley,Dion,Dowse,,6 Stuart Street,Apartment 3,Sacramento,California,94297
7043920,12,23,Sergei,Dianne,Boswell,,1960 Mosinee Way,"",Los Angeles,California,90087
5823503,7C,20,Maegan,Del,Balentyne,,3277 Namekagon Hill,"",Madison,Wisconsin,53779
5100394,5,21,Kirsten,Doll,Pesterfield,,59 Thierer Trail,"",Memphis,Tennessee,38104
6984432,7C,20,Alfreda,Jamill,Edess,,17739 Ruskin Court,"",Tampa,Florida,33610
8020929,7C,23,Nixie,Say,Feak,,7584 Fairview Parkway,"",Young America,Minnesota,55573
5401070,7C,21,Thebault,Chandal,Cumine,,68 Melody Hill,"",North Port,Florida,34290
7681081,5,20,Dawna,Pierrette,Passingham,,893 Bay Junction,"",Athens,Georgia,30605
7685597,5,20,Sonnie,Consalve,Offner,,11996 Daystar Court,"",Memphis,Tennessee,38168
9376830,5,20,Humfried,Lorant,Doncaster,,4 Ridge Oak Trail,Unit #75,El Paso,Texas,79928
3579732,5,21,Arlen,Elwira,Flaherty,,02299 Kensington Court,"",Norwalk,Connecticut,06854
2892442,12,21,Rayna,Othello,O'Shea,,58 Upham Point,"",Naples,Florida,33961
2643478,7C,21,Chickie,Matteo,Bartolomeu,,522 Eliot Alley,"",Topeka,Kansas,66611
6170195,12,20,Erina,Jareb,Hanniger,,887 Crownhardt Road,"",Birmingham,Alabama,35279
7624300,5,20,Valentijn,Gunar,Klebes,,1559 Del Mar Pass,"",El Paso,Texas,88579
5519601,12,23,Jerri,Jilli,Lavender,,03 Cordelia Lane,"",Jamaica,New York,11499
6237240,5,20,Vince,Royal,Rimington,,34 Hanover Park,"",Columbus,Ohio,43215
1832980,12,23,Helenelizabeth,Bary,Bravery,,2 Clove Street,"",Washington,District of Columbia,20551
8826627,7C,21,Sig,Nathalia,Basire,Jr,14080 5th Court,"",Brockton,Massachusetts,02305
3075457,12,21,Alisa,Moselle,Helling,,1136 Boyd Way,"",Madison,Wisconsin,53726
2561982,5,23,Garwin,Simonette,Ast,,46 Commercial Point,"",Kalamazoo,Michigan,49006
3327447,5,21,Hansiain,Reidar,Sauniere,,85474 Lunder Drive,"",Nashville,Tennessee,37220
6958498,5,23,Omero,Boony,Klehn,,8419 School Junction,"",Greenville,South Carolina,29615
3336878,5,23,Dallas,Rivalee,Kettley,,8 Basil Pass,"",Johnson City,Tennessee,37605
5853201,12,20,Heinrik,Guntar,O' Mulderrig,,0357 Heffernan Way,"",Sterling,Virginia,20167
9998528,12,23,Sarina,Dynah,Cornes,,3909 Graceland Pass,"",Huntington,West Virginia,25726
1533224,12,20,Michelle,Alysia,Antoniou,,3 Bartillon Alley,"",Dallas,Texas,75246
5761858,7C,21,Nels,Sherill,Pawelke,,9605 Michigan Court,"",Atlanta,Georgia,31119
3538326,12,23,Angelica,Laina,Dobbings,,57 Blue Bill Park Circle,"",Brooklyn,New York,11210
5973146,7C,21,Lemmie,Anet,Lowten,,3 Rowland Alley,"",Charlotte,North Carolina,28263
2402398,12,21,Chadd,Bev,Fussen,,6349 Sheridan Court,"",Baltimore,Maryland,21211
2345104,5,23,Rena,Merv,Adamczyk,,86332 Morning Road,"",Phoenix,Arizona,85025
8004788,5,20,Taryn,Thorsten,Banasiak,,78720 Orin Road,"",Chula Vista,California,91913
9949356,7C,20,Mildrid,Diane-marie,Wey,,6520 Springview Trail,"",Salt Lake City,Utah,84120
7257905,7C,23,Roger,Leena,Mattersey,,129 Oneill Place,"",Vero Beach,Florida,32969
7352487,7C,21,Stanislaw,Daria,Drysdell,II,674 Bluestem Road,"",Corpus Christi,Texas,78470
9288952,5,23,Melba,Jefferey,Slarke,,79508 Briar Crest Place,"",Naperville,Illinois,60567
3669391,12,21,Orren,Rosetta,Galiero,,8 Toban Road,"",Charleston,South Carolina,29403
1802117,5,20,Ronald,Fitzgerald,Longthorn,,77291 Stone Corner Junction,"",Aurora,Illinois,60505
8279470,7C,21,Addie,Berky,Craythorn,Sr,736 Kensington Trail,"",Minneapolis,Minnesota,55423
4427844,5,23,Lisetta,Wallis,MacGhee,,9681 Mifflin Parkway,"",Virginia Beach,Virginia,23471
1886872,5,23,Aldous,Graig,De Lasci,,5380 Monterey Park,"",Charlotte,North Carolina,28242
7002741,12,20,Vivi,Elianora,Domanek,III,9632 Monterey Street,"",Idaho Falls,Idaho,83405
1231396,7C,23,Crichton,Scarlet,Axelbey,,7 Express Hill,"",Canton,Ohio,44705
4123296,7C,23,Zea,Idelle,Lain,,88 Vidon Hill,"",Rochester,New York,14614
3963967,7C,23,Berkeley,Bevan,Rennenbach,,44 Fuller Center,"",Grand Junction,Colorado,81505
1549777,5,21,Alexia,Eada,Seligson,,83637 Rockefeller Center,"",Pittsburgh,Pennsylvania,15215
2237878,7C,21,Rozanna,Jill,Raincin,,6 West Crossing,"",Tucson,Arizona,85748
4367328,12,21,Marcellus,Jean,Crowdy,,1 Elka Junction,"",Washington,District of Columbia,20530
5195397,12,21,Lilian,Rozanne,Giffkins,,26429 Farragut Street,"",Saginaw,Michigan,48604
9274497,12,20,Pierce,Daisi,Battey,,28 Bunting Way,"",Cincinnati,Ohio,45264
7240081,5,23,Honey,Earle,Lambswood,,5670 Fallview Court,Apartment 3,Pittsburgh,Pennsylvania,15230
3074520,5,20,Anette,Denys,Kinnane,,70459 Norway Maple Terrace,"",Tampa,Florida,33694
6111307,7C,20,Horacio,Sullivan,Ebbs,,431 Scofield Place,"",Norfolk,Virginia,23504
6833045,7C,23,Mitzi,Brant,Toynbee,,08145 Anzinger Center,"",Washington,District of Columbia,20470
2579253,7C,20,Burtie,Scarlet,Prigg,,5 Express Place,"",Washington,District of Columbia,20397
4106466,12,21,Base,Tally,Lude,,37299 Farragut Parkway,"",Baltimore,Maryland,21203
5946844,12,21,Virginie,Ambrosi,Coll,,415 Hoepker Circle,"",Washington,District of Columbia,20535
2657701,7C,21,Rhys,Esra,Leupoldt,,49344 Park Meadow Street,"",El Paso,Texas,88546
1736702,5,20,Kriste,Nealson,Gundry,,91 Butternut Center,"",Salt Lake City,Utah,84115
2136623,7C,21,Gaspard,Willyt,Liversedge,,73961 Dunning Point,Apartment 3,San Francisco,California,94154
3683284,7C,21,Krissy,Alexei,Simkovitz,,7 Mariners Cove Alley,"",Denver,Colorado,80270
1418278,7C,23,Mozelle,Linnell,Randalston,,4222 Thierer Road,"",Saint Louis,Missouri,63131
2972981,5,23,Elfrida,Brockie,Covotto,,52674 Wayridge Trail,"",Flushing,New York,11355
2998748,7C,21,Kay,Dre,Rodear,,01 Jenifer Lane,Apartment 3,Las Vegas,Nevada,89120
1500270,7C,21,Tod,Brietta,Rodders,,0897 Jenifer Circle,"",Falls Church,Virginia,22047
5611138,7C,20,Regan,Maxie,Wistance,,129 Bobwhite Street,"",El Paso,Texas,88530
7679543,12,20,Stevena,Aldric,Kline,,94518 Katie Circle,"",Schenectady,New York,12305
5909679,12,20,Jayne,Adora,Adamkiewicz,,556 Ilene Trail,"",Cedar Rapids,Iowa,52410
7978366,7C,23,Brandyn,Gabe,Standingford,,9873 Monica Terrace,"",Fort Lauderdale,Florida,33310
5515466,7C,20,Baudoin,Milly,Sinnatt,,6 Toban Trail,"",Memphis,Tennessee,38119
1140067,5,23,Annnora,Cara,Fullick,,7337 Pearson Road,"",Atlanta,Georgia,30356
9755667,12,21,Danette,Corrina,Letty,,84 Bluejay Court,"",Tulsa,Oklahoma,74103
3899517,5,20,Mitzi,Fair,Giacopetti,,7 Loeprich Trail,"",Camden,New Jersey,08104
7052095,7C,23,Reg,Barnebas,Anscombe,,722 Onsgard Terrace,"",Las Vegas,Nevada,89155
1470339,7C,23,Lorraine,Gloriana,Rosini,,899 Bluestem Street,"",San Francisco,California,94154
9158512,7C,23,Corbett,Bamby,Pettigrew,,76 Chinook Hill,"",Wilkes Barre,Pennsylvania,18768
6869915,7C,20,Elset,Witty,MacPhail,,62 6th Terrace,"",Everett,Washington,98206
4085208,7C,23,Liv,Emmeline,Geratasch,,5223 Killdeer Road,"",Newport News,Virginia,23605
4567776,12,20,Reider,Konrad,Arran,,50734 Nancy Alley,"",Washington,District of Columbia,20005
6776910,12,23,Paula,Xylina,Farnin,,2 Mendota Way,"",Fort Lauderdale,Florida,33336
8273234,5,21,Bonnie,Francisca,Tremblot,,7 Maple Wood Place,"",Huntington Beach,California,92648
5223200,7C,23,Drew,Amberly,Dytham,,4 Sage Park,"",Waterbury,Connecticut,06705
1564697,12,21,Sumner,Almira,Bossom,,958 Chive Parkway,"",Atlanta,Georgia,30351
3969172,12,20,Jammal,Keene,Reinbeck,,27888 Sachtjen Crossing,"",Columbus,Ohio,43226
7976228,5,20,Joycelin,Christalle,O'Hickee,,87069 Superior Parkway,"",Dayton,Ohio,45403
5058737,5,23,Fidelia,Jamey,Batchan,,88 Village Terrace,"",Chicago,Illinois,60614
9641137,7C,23,Skipp,Myrvyn,Regi,,26 Gulseth Way,"",Memphis,Tennessee,38161
9440358,12,23,Damara,Andreana,MacAlees,,65 Di Loreto Crossing,"",Houston,Texas,77212
6758578,12,23,Agnella,Antons,Gouldeby,,98 8th Court,"",Albuquerque,New Mexico,87105
9201441,7C,23,Gearard,Kris,Bowcock,,60 Parkside Hill,"",Boston,Massachusetts,02203
4377520,5,21,Conrad,Marline,Teaser,,8775 Melvin Circle,"",Springfield,Illinois,62756
9147336,7C,23,Tricia,Dar,Mathwin,,56416 Crownhardt Lane,"",Salt Lake City,Utah,84199
4714642,5,21,Babb,Eugenia,Torricina,,1083 Burning Wood Junction,"",Prescott,Arizona,86305
3613977,5,21,Luz,Roldan,Showl,,24 Manley Plaza,"",Charlotte,North Carolina,28242
8216646,5,21,Marris,Klarrisa,Longshaw,IV,0 Walton Drive,"",Washington,District of Columbia,20520
8851945,12,23,Leif,Eleni,Rushmere,,1 Scott Street,Unit #75,Dallas,Texas,75241
6384109,7C,20,Bernita,Corene,Salway,,8 Rigney Trail,"",Springfield,Illinois,62764
2310284,12,20,Brian,Washington,Wayt,,3 Sheridan Road,"",Colorado Springs,Colorado,80995
1146092,5,20,Sally,Dareen,Wooder,,6404 Schurz Way,"",Oklahoma City,Oklahoma,73129
5242306,5,20,Bayard,Hattie,Bodicam,,4960 Talisman Point,"",Loretto,Minnesota,55598
9505524,7C,23,Ruben,Pegeen,Purseglove,,74 Buhler Circle,"",Chicago,Illinois,60619
8321531,12,21,Gwynne,Quintilla,Gricewood,,220 Canary Park,"",Seattle,Washington,98140
6447287,5,20,Andrey,Luis,Filippi,,67913 Monica Trail,"",San Diego,California,92121
2808795,7C,23,Gaspar,Constantine,Trude,,2413 Mcguire Terrace,"",Mobile,Alabama,36641
5384689,7C,21,Leese,Jordana,Roscrigg,,43008 Magdeline Junction,"",Roanoke,Virginia,24040
8338905,12,20,Glad,Hazlett,Crombleholme,,69 Sunfield Park,"",Tucson,Arizona,85705
3378601,5,20,Sky,Garland,Barmby,,49 Green Court,"",Saint Louis,Missouri,63143
9786338,12,20,Lottie,Alyce,Taylot,,6 Clove Street,"",Lehigh Acres,Florida,33972
2431700,12,20,Frankie,Bobby,Gong,,3030 Maryland Drive,"",Atlanta,Georgia,30323
1865723,5,21,Em,Brinna,Hitscher,,50721 Northwestern Circle,"",Cincinnati,Ohio,45238
1929120,12,21,Jordanna,Clemens,Caney,,41283 Lotheville Way,"",Trenton,New Jersey,08638
3685048,5,23,Imojean,Loree,Harbage,,64977 Charing Cross Pass,"",Philadelphia,Pennsylvania,19125
4451807,5,21,Berrie,Roseanne,Prew,,330 Glendale Junction,"",El Paso,Texas,79999
9090849,12,21,Marlie,Federico,Kinane,Sr,0 Stone Corner Park,"",Lynchburg,Virginia,24503
8156143,7C,21,Alasdair,Clayborn,Smooth,,03 Forest Run Circle,"",Greenville,South Carolina,29605
7440404,5,20,Mill,Burtie,Vassie,,44863 Magdeline Trail,"",Miami,Florida,33169
9478548,7C,23,Katherine,Valli,Wyld,,346 Florence Center,"",Albany,New York,12205
7692732,12,21,Stanton,Leonie,Mattin,,91 Granby Circle,"",Louisville,Kentucky,40266
6667456,12,23,Davine,Jori,MacConnell,,70 Toban Parkway,"",Albany,New York,12242
2618473,5,20,Goldie,Clem,MacAnellye,,475 Merrick Way,"",Gadsden,Alabama,35905
2869894,7C,20,Zackariah,Linnie,Fronzek,,63 Center Drive,"",Cincinnati,Ohio,45228
1399018,12,20,Hyacintha,Waldemar,Munro,,0 Transport Park,"",Pasadena,California,91186
3708642,12,20,Byrle,Essie,Hawksby,,85 Messerschmidt Trail,"",Monroe,Louisiana,71208
7430629,7C,21,Moyra,Ivett,Baglin,,8 Meadow Vale Court,"",New York City,New York,10125
5338602,7C,23,Eddi,Penrod,Vaudre,,9 Canary Park,"",Phoenix,Arizona,85045
5602928,5,21,Brigitta,Elaina,Moors,,877 Becker Park,"",Fort Wayne,Indiana,46825
1147849,5,23,Doe,Dione,Adam,,3 Springview Court,"",Bowie,Maryland,20719
9439205,5,20,Pet,Theobald,Mowett,Jr,45823 Cardinal Crossing,"",South Bend,Indiana,46620
9576730,12,20,Merwin,Myriam,Pegg,,62 Del Sol Court,"",Jacksonville,Florida,32225
6721830,12,21,Padgett,Abran,Sammonds,,35694 Delaware Avenue,"",Charlotte,North Carolina,28210
3534903,7C,23,Gray,Oliy,Slixby,,4028 Little Fleur Parkway,"",Detroit,Michigan,48242
4860704,12,20,Eadie,Starr,Hentzer,,514 Burrows Way,"",Kansas City,Kansas,66105
1229654,12,20,Dedie,Lulu,Govey,,96600 Oak Valley Parkway,Apartment 3,White Plains,New York,10633
4375105,7C,20,Obadiah,Sheilakathryn,Gothup,,65 Blackbird Park,"",Orlando,Florida,32825
7792414,7C,21,Chandler,Devonna,McMorran,,232 Cardinal Parkway,"",Fort Lauderdale,Florida,33320
5578874,12,21,Martita,Had,Emberson,,8354 Twin Pines Alley,"",New York City,New York,10014
8362617,7C,20,Vincents,Daniel,Denekamp,,60069 Tennyson Pass,"",Ogden,Utah,84403
5006033,12,21,Addy,Charisse,Bindley,,77731 Dorton Terrace,"",Warren,Ohio,44485
3497764,7C,23,Blisse,Will,Ellerman,,71 Burrows Pass,"",New York City,New York,10009
3895285,5,20,Truda,Adolpho,Ramiro,,25 Raven Pass,"",San Jose,California,95128
2854103,7C,21,Minni,Donall,Spanswick,,07 Surrey Road,"",Aiken,South Carolina,29805
1933733,7C,23,Randene,Kipper,Yushankin,,76 Sugar Terrace,Apartment 3,Houston,Texas,77080
7603743,7C,20,Fern,Carena,Livesay,,5440 Lillian Plaza,Unit #75,Atlanta,Georgia,31165
2473522,12,23,Bobbie,Astrix,Hawley,,460 2nd Drive,"",Columbia,South Carolina,29240
6212547,7C,21,Gabby,Carlos,Zanolli,,29752 Surrey Hill,Apartment 3,El Paso,Texas,79977
2222014,7C,20,Ernesta,Sela,Winship,,5 2nd Plaza,Apartment 3,Boise,Idaho,83705
8715509,5,21,Jayme,Ingamar,Savaage,,38 Fisk Way,"",Brooksville,Florida,34605
8386911,5,23,Julie,Kirk,Debill,,527 Barby Street,Apartment 3,Tampa,Florida,33694
7054302,12,21,Nikoletta,Joshua,Goodsall,,0 Esch Terrace,"",Boulder,Colorado,80310
8994067,7C,21,Sax,Violette,Bernardotte,,87026 Glacier Hill Lane,"",San Diego,California,92110
4517550,5,23,Elianore,Leila,Noar,,027 Union Court,"",Young America,Minnesota,55573
7687682,5,20,Steffi,Lydie,Valett,,368 Fulton Court,"",Arlington,Virginia,22217
5807372,7C,21,Else,Clay,Eggleston,,46497 Haas Plaza,"",Little Rock,Arkansas,72215
6561433,12,23,Alonzo,Angeli,Darrigone,,4904 Gale Avenue,"",Mc Keesport,Pennsylvania,15134
5970927,5,23,Marianna,Vernor,Jamieson,,722 Grayhawk Pass,"",Milwaukee,Wisconsin,53234
9884065,5,23,Lazarus,Wayne,Luckings,,2 Comanche Street,"",San Jose,California,95138
8161566,7C,21,Joya,Mal,Berisford,,9 Badeau Circle,Unit #75,Phoenix,Arizona,85030
3994994,12,21,Drucill,Emelia,Borham,,1 Miller Pass,"",Syracuse,New York,13210
5628777,12,23,Cecil,Emmit,Derks,,78 Pennsylvania Park,"",Dallas,Texas,75323
7534460,7C,21,Rex,Marnia,Bayles,,86112 Commercial Drive,Unit #75,Atlanta,Georgia,31165
2004590,12,20,Westbrooke,Roley,Grimster,,614 Birchwood Point,"",Young America,Minnesota,55557
3209402,12,20,Tracey,Querida,Berryman,,1144 Everett Drive,"",Migrate,Kentucky,41905
4989206,12,20,Rutherford,Joy,Adamovich,,93238 Colorado Center,"",Albany,New York,12255
6950091,5,23,Nanette,Meredithe,Hurdiss,III,1385 Fulton Pass,"",Pittsburgh,Pennsylvania,15240
2405875,5,21,Tull,Darcy,Stanes,,909 Waubesa Hill,"",Fresno,California,93762
3122789,7C,21,Morena,Ira,McElwee,,163 Morning Alley,"",Montgomery,Alabama,36125
1647530,5,23,Gianna,Casper,Coolican,II,07526 Graedel Point,"",Chico,California,95973
9092487,5,23,Shannon,Sharron,Rigden,III,768 Pankratz Trail,"",Denver,Colorado,80255
3813213,5,20,Griselda,Lin,Sigars,,30979 Dryden Hill,Unit #75,Fort Worth,Texas,76105
7656311,12,23,Dion,Midge,Luddy,,6 Burning Wood Road,Apartment 3,Nashville,Tennessee,37240
3476635,7C,23,Teriann,Petronia,Paton,,193 Banding Court,"",Stockton,California,95298
5401123,5,23,Emmit,Delinda,Karczinski,Jr,2 Monterey Center,"",Newark,New Jersey,07104
1170160,5,23,Kiley,Lyle,Blamey,,98 Sullivan Park,"",New York City,New York,10099
5715051,7C,20,Annamarie,Heda,Faichnie,,14176 Hudson Alley,"",Grand Rapids,Michigan,49560
6651953,5,20,Huey,Torey,Mazey,,6 Acker Plaza,"",South Lake Tahoe,California,96154
2201684,7C,20,Ware,Oswell,Mathwin,,23 Brickson Park Terrace,"",New York City,New York,10260
8319578,5,23,Alistair,Omar,Courtenay,,00 Green Street,"",Vancouver,Washington,98682
8268895,5,21,Judd,Norris,Lille,,9911 Bluestem Junction,"",Fresno,California,93721
8581436,7C,21,Robinia,Mavra,Halwell,,30 Sauthoff Way,"",El Paso,Texas,88546
6940967,5,23,Alyssa,Gwenette,Cornelisse,,9 Hagan Alley,"",Houston,Texas,77276
3794098,7C,21,Grace,Belinda,Swan,,54570 Spenser Lane,"",San Antonio,Texas,78220
2929732,12,23,Bertrand,Brittni,Vardey,,83831 Tony Pass,"",Washington,District of Columbia,20575
8273222,5,23,Kristian,Orin,Reitenbach,,46535 Petterle Drive,"",Saint Louis,Missouri,63121
4666067,12,21,Katerine,Darsey,Lyness,,2380 Burning Wood Circle,Apartment 3,Humble,Texas,77346
2687327,5,21,Moria,Jonis,Djokic,,21 Bay Point,"",Corpus Christi,Texas,78470
6203875,7C,23,Wait,Aldis,Orange,,7018 Graedel Road,Apartment 3,Kansas City,Kansas,66160
4934709,5,21,Van,Kareem,Brimner,,1606 Pine View Plaza,"",San Diego,California,92196
2832701,7C,20,Loralee,Crysta,Topp,,49 Harbort Junction,"",Las Vegas,Nevada,89145
7810288,7C,23,Robbyn,Bert,Walsham,,42103 Reinke Pass,"",Appleton,Wisconsin,54915
5193607,7C,21,Susanne,Cathryn,Storres,IV,00 Melody Center,"",Youngstown,Ohio,44505
7330110,5,23,Isidore,Tonia,O'Cannon,,09874 Kedzie Junction,Unit #75,Mobile,Alabama,36622
9778984,5,21,Honoria,Kacy,Portch,II,173 Delladonna Circle,"",El Paso,Texas,79905
7880329,5,20,Zondra,Marika,Cockroft,,79 Badeau Terrace,"",Arlington,Texas,76096
6215472,5,23,Morie,Brig,Kynaston,,58 Columbus Pass,Apartment 3,Birmingham,Alabama,35279
6139794,12,21,Clementine,Audrey,MacAskill,,43516 Dwight Way,"",Dallas,Texas,75372
6320593,5,23,Levi,Nobe,Grcic,,808 Duke Circle,"",Gatesville,Texas,76598
1176760,12,20,Giselle,Michele,Eagles,,5575 Dapin Junction,"",Clearwater,Florida,33763
2108519,12,21,Efren,Dorelle,Mardling,,30651 Lien Hill,"",Farmington,Michigan,48335
1499149,12,20,Janeen,Curcio,Foukx,,5622 Clyde Gallagher Pass,"",New York City,New York,10090
5909157,5,23,Nert,Rolfe,Flecknell,,3072 Erie Circle,"",Cleveland,Ohio,44111
5717980,5,20,Otis,Penelope,Huckerby,III,1515 Loomis Avenue,"",Madison,Wisconsin,53779
1083526,5,23,Jeno,Joella,Boerderman,,5044 Crowley Court,"",Savannah,Georgia,31410
6528470,12,21,Celene,Morey,Muslim,,4350 Huxley Court,"",Muncie,Indiana,47306
9757187,5,23,Arlan,Blayne,Titley,Sr,2943 Cascade Point,"",Miami,Florida,33185
1950885,5,20,Collen,Astrid,Brownlow,,121 Moulton Crossing,"",Pensacola,Florida,32520
4245499,12,20,Micky,Sebastiano,Helks,,6 Porter Circle,"",New Haven,Connecticut,06510
5295528,7C,23,Evin,Lyell,Sermin,Sr,67678 Service Hill,"",El Paso,Texas,88514
4217329,5,21,Lucinda,Paulette,Etchell,,8471 Quincy Trail,"",San Francisco,California,94137
7835636,12,21,Bentlee,Janel,Grimsdike,,373 Waubesa Road,"",Dayton,Ohio,45414
2152634,5,23,Jacklyn,Sallie,Gostling,,78585 Morrow Crossing,"",El Paso,Texas,79994
8699548,7C,21,Normie,Jud,Shotboult,,96086 Saint Paul Way,"",Atlanta,Georgia,30311
7935112,12,20,Angy,Butch,Form,,93787 Schmedeman Avenue,"",New York City,New York,10160
6497143,12,20,Jo-anne,Myrtia,McEntagart,,63725 Shoshone Trail,"",Schaumburg,Illinois,60193
3276134,5,23,Timmy,Mart,Timoney,,08 Hayes Center,"",Springfield,Massachusetts,01152
6858312,5,21,Aharon,Lock,Stancliffe,,9268 Ridge Oak Road,Apartment 3,Miami,Florida,33283
7082169,7C,21,Harbert,Etienne,Klagges,,3 Schurz Court,"",San Diego,California,92170
2443979,5,20,Moises,Vanya,Arsnell,,6 Kenwood Place,"",Honolulu,Hawaii,96850
3933774,5,23,Garry,Hart,Ensor,,94 Dunning Parkway,"",Springfield,Illinois,62756
8187534,7C,23,Benjamin,Meryl,Gartan,,15215 Trailsway Alley,"",Warren,Michigan,48092
7041743,12,20,Guenevere,Pauli,Lacase,,23 Clarendon Junction,"",Trenton,New Jersey,08638
9888464,5,20,Mariel,Reba,Seleway,,4169 Ridgeway Point,"",Young America,Minnesota,55557
1813299,5,21,Jard,Mildred,Dowall,,3461 Oakridge Court,"",Shawnee Mission,Kansas,66286
7641233,12,20,Aviva,Aurelea,Gameson,,57 Eastlawn Parkway,"",Albany,New York,12210
8401608,5,20,Dacie,Aubrie,Savile,,1 Barby Lane,"",Murfreesboro,Tennessee,37131
8915275,5,23,Kareem,Rianon,Livezley,,838 Farwell Park,"",Pittsburgh,Pennsylvania,15274
1710295,7C,20,Tybalt,Guthrey,Semmens,,720 Center Terrace,"",San Francisco,California,94142
2065020,5,23,Jane,Ximenes,Fontell,,452 Forest Run Junction,"",El Paso,Texas,79911
2936708,7C,21,Dorothea,Stephani,Cardno,,95 Arkansas Avenue,"",Iowa City,Iowa,52245
6545312,7C,23,Julius,Perl,Costan,III,1347 Nobel Avenue,"",Dayton,Ohio,45408
9597558,7C,21,Burlie,Cathryn,Deegan,,4951 Ronald Regan Circle,"",Washington,District of Columbia,20319
5964994,12,20,Beret,Jordanna,Jacquemard,,44986 Bluejay Parkway,"",Saint Cloud,Minnesota,56372
2539123,12,23,Orlando,Yorgos,Jann,,52 Spohn Way,"",Beaverton,Oregon,97075
6426151,12,23,Alessandro,Vivia,Rakestraw,,90950 Kings Road,"",Boston,Massachusetts,02124
3801214,7C,23,Glenna,Osbourne,Stanbrooke,,4167 Westport Street,"",Raleigh,North Carolina,27635
1258480,7C,20,Fredric,Adiana,O'Suaird,,3157 Annamark Alley,"",Anaheim,California,92812
6750824,5,21,Correna,Slade,Elwel,,675 High Crossing Place,Unit #75,El Paso,Texas,88530
6692588,7C,20,Sheela,Danny,Tabourin,,60 Green Ridge Avenue,"",Austin,Texas,78744
1993321,5,21,Saundra,Cchaddie,Dizlie,,363 Golf View Plaza,"",Peoria,Illinois,61614
8733311,7C,20,Quintana,Efren,Barnwille,,320 Fordem Alley,"",Lexington,Kentucky,40524
5569936,5,20,Quillan,Sue,Talby,,7841 Division Drive,Apartment 3,Shreveport,Louisiana,71151
3907239,5,20,Sigismundo,Renae,Eaves,,8551 Towne Drive,"",Lake Charles,Louisiana,70607
8643917,12,21,Parker,Hollis,Smoote,,468 Erie Street,"",Lees Summit,Missouri,64082
1068974,12,21,Jeramey,Mable,Pickavant,IV,26130 Granby Street,"",Austin,Texas,78778
7280187,5,23,Concettina,Filmer,Riche,,0420 Dapin Center,"",San Francisco,California,94177
4864301,12,20,Michael,Conni,Hindrick,,497 Sauthoff Plaza,"",Wichita,Kansas,67205
6673565,7C,23,Anatola,Rod,Scudders,IV,05095 Buhler Court,"",Columbus,Ohio,43231
4276913,5,20,Wynn,Kate,Balogh,,2 Northport Street,"",Ventura,California,93005
1213109,7C,20,Olly,Flossi,Sanja,,548 Melby Road,"",Sioux Falls,South Dakota,57188
3156288,5,20,Dannie,Kordula,Fennessy,,586 Veith Crossing,"",Fullerton,California,92640
1328935,12,20,Anthia,Joan,Vearncombe,,8 Carpenter Place,"",Kansas City,Missouri,64153
3312686,5,23,Warde,Lelah,Pollastro,,4480 Marquette Court,"",Pittsburgh,Pennsylvania,15215
8324837,12,20,Bibbye,Gwyn,MacArdle,,13041 Novick Road,"",Sacramento,California,95818
3216434,7C,23,Dorene,Leigh,Lamberti,,32 Sachs Center,"",Gadsden,Alabama,35905
7679686,5,21,Casey,Linell,Bonner,,4413 Messerschmidt Drive,"",Stockton,California,95205
7455641,7C,20,Ivett,Briny,Lambis,,851 Steensland Way,"",Sacramento,California,95828
5196782,5,20,Courtnay,Temp,Andrasch,,45582 Dottie Center,"",Indianapolis,Indiana,46226
4545410,7C,20,Israel,Lissie,Lincoln,,826 Utah Terrace,"",Bozeman,Montana,59771
6033608,5,20,Willy,Fawn,Server,,966 Lunder Trail,"",Washington,District of Columbia,20420
7897503,5,21,Kendra,Fin,Amor,,87 Loomis Circle,"",Jefferson City,Missouri,65105
7317910,12,21,Tomkin,Agna,Wife,,8 Ludington Point,"",Richmond,Virginia,23293
3729117,12,23,Genia,Laurel,Yerrington,,7 Swallow Road,"",White Plains,New York,10633
1731988,7C,21,Cynthea,Roderick,Kasbye,,5008 Riverside Avenue,Unit #75,Hartford,Connecticut,06160
1688843,5,23,Shayne,Benedikt,MacPake,Sr,3989 Brentwood Trail,"",Hampton,Virginia,23663
2216021,7C,23,Sonya,Tracie,Tournay,,292 Kropf Alley,"",San Diego,California,92127
5502178,7C,21,Pavia,Delphinia,Schober,,63214 Ilene Point,"",Santa Fe,New Mexico,87505
9411310,12,20,Fonsie,Mario,Bracher,,78 Quincy Road,"",West Palm Beach,Florida,33411
7968478,7C,20,Knox,Paloma,Sawdy,,4 Brentwood Lane,Unit #75,El Paso,Texas,79994
9678844,12,23,Augie,Liliane,McGorley,,9 Heath Point,Unit #75,Denver,Colorado,80255
2363940,12,20,Tova,Brew,Laytham,,772 Pawling Park,"",New York City,New York,10105
7440774,7C,21,Vanni,Korney,Castiglioni,,8594 Arrowood Plaza,"",Dallas,Texas,75323
2918540,5,21,Tanner,Christy,Jerrams,,2 Birchwood Park,Unit #75,Las Vegas,Nevada,89145
9744916,7C,20,Hasheem,Filberto,Cooksley,,7377 Troy Way,"",Glendale,California,91205
7736431,7C,20,Rodrick,Federico,McGiffie,,95 Texas Pass,Apartment 3,Denver,Colorado,80249
1616266,5,20,Derrek,Lynne,Bernlin,,78815 Gulseth Terrace,"",Atlanta,Georgia,30336
3908548,5,21,Elias,Karlene,Doman,,1622 Victoria Center,Apartment 3,Houston,Texas,77020
3908891,7C,21,Janeczka,Jobey,Mapholm,,496 Bunker Hill Court,"",New York City,New York,10280
8689935,7C,20,Shelba,Georgianne,Roxby,,395 Northview Park,Unit #75,Fresno,California,93750
8210315,5,20,Riane,Gale,Worden,,575 Namekagon Hill,"",East Saint Louis,Illinois,62205
7120182,7C,21,Bealle,Brittne,Birbeck,,697 Stephen Junction,"",Orlando,Florida,32859
1000305,12,21,Friedrick,Ferris,Stutt,,8741 Hoffman Circle,"",Norfolk,Virginia,23504
4559192,7C,21,Packston,Chere,Grealy,,9988 Fieldstone Hill,"",New York City,New York,10115
6058651,5,23,Barr,Nicolas,Girth,,62256 Gina Trail,"",Tallahassee,Florida,32309
3736572,7C,21,Sigismond,Nananne,Abramovitch,Sr,17526 Dawn Crossing,"",Detroit,Michigan,48275
9771625,7C,23,Roz,Renato,Dugan,,03567 Warrior Avenue,"",Springfield,Ohio,45505
8130296,7C,21,Kittie,Ag,Pardew,,3 Mockingbird Road,Apartment 3,Garland,Texas,75049
7444003,7C,20,Luis,Vale,Rushmer,,08 Autumn Leaf Hill,"",Lubbock,Texas,79491
7991429,7C,23,Isabelle,Dallas,McCarroll,,7855 Waxwing Court,"",Denton,Texas,76210
5277307,12,23,Mikaela,Marita,Kuhlen,,7531 Sachs Crossing,"",Reno,Nevada,89510
7395073,5,23,Heath,Madelaine,Kinson,,19 Riverside Court,"",Fort Lauderdale,Florida,33345
2573906,12,20,Holmes,Natale,Mertgen,,009 Badeau Point,"",Tucson,Arizona,85715
8609388,7C,21,Lorrie,Fayette,Harken,,14366 Sachtjen Drive,"",Syracuse,New York,13205
9703433,5,23,Otis,Uta,Lowden,,9466 Kenwood Point,"",Atlanta,Georgia,30358
4679807,12,21,Darnell,Lauryn,Broomer,,95047 Holmberg Point,"",Tacoma,Washington,98464
2800554,7C,21,Reinhard,Myrta,Boik,,56 Stang Hill,"",Tucson,Arizona,85725
3674146,7C,21,Jarrid,Claresta,Bouskill,,117 Shopko Road,"",Syracuse,New York,13205
9985183,5,21,Byrle,Kent,Pinnegar,,56 Crescent Oaks Court,"",Louisville,Kentucky,40298
7809493,7C,23,Gates,Lindsay,Bert,,61 Old Gate Center,"",Charlottesville,Virginia,22903
2521439,5,21,Nerissa,Kiah,Denyukin,,2893 Commercial Plaza,"",Denver,Colorado,80255
6838689,7C,20,Darice,Mufi,Buckenham,,6506 Columbus Crossing,"",Albuquerque,New Mexico,87110
5302260,12,20,Judon,Barbey,Szymanowski,Jr,65 Fordem Avenue,"",Hialeah,Florida,33018
2962921,7C,21,Alys,Hurlee,Cornels,,3 Truax Plaza,"",Chattanooga,Tennessee,37410
3908505,7C,23,Marilyn,Yorgos,Bricham,,1 Katie Circle,"",Pensacola,Florida,32520
1705409,5,21,Gale,Sergent,Ragles,,017 Longview Circle,"",Pasadena,California,91186
2052734,12,20,Niels,Fiorenze,Franses,,274 Debra Lane,Apartment 3,Nashville,Tennessee,37228
2070569,5,20,Wendell,Leah,Ivanisov,,8 Shopko Street,"",Philadelphia,Pennsylvania,19104
4789945,12,23,Mildrid,Remy,Tegeller,,93 Colorado Junction,"",Los Angeles,California,90055
6371964,7C,23,Lethia,Barth,Fullard,,460 Sommers Terrace,Apartment 3,San Antonio,Texas,78260
8239211,5,23,Langston,Tito,Vaudin,,9501 Service Trail,"",San Diego,California,92110
7627984,5,21,Skye,Dorothea,Vallow,,1 Mendota Way,"",Bronx,New York,10454
7089902,5,23,Warren,Corbin,Trathan,,678 Carey Junction,"",Alexandria,Virginia,22309
5514951,7C,21,Bay,Ettie,Skyrme,,06373 Anhalt Parkway,"",Anaheim,California,92812
7538270,7C,21,Darrin,Bay,Covington,,493 Randy Center,"",Bonita Springs,Florida,34135
2916777,12,20,Arley,Shawnee,Brimelow,,52 Anniversary Junction,"",Salem,Oregon,97306
7494377,7C,20,Clementia,Cchaddie,Pakeman,,614 Scoville Drive,"",Topeka,Kansas,66611
9500844,5,20,Junette,Maisey,Vokins,,5 Gina Avenue,"",Whittier,California,90610
9125636,12,20,Shem,Manon,Gatland,,1649 Huxley Pass,Unit #75,Chattanooga,Tennessee,37450
1615735,12,20,Geri,Thelma,Clutheram,,64223 Maywood Crossing,Apartment 3,Washington,District of Columbia,20073
3228160,7C,21,Lane,Joelly,Dismore,,818 Hooker Center,"",Philadelphia,Pennsylvania,19104
2301184,12,20,Cort,Lyndsey,Syphas,,76 Pleasure Lane,"",Danbury,Connecticut,06816
1643674,5,20,Mariejeanne,Michelle,McBrier,,70 Blaine Way,"",Montgomery,Alabama,36109
6943144,12,21,Calhoun,Gerrie,MacGarrity,,4 Gateway Place,"",Milwaukee,Wisconsin,53277
7861463,7C,21,Lyndy,Inessa,Reddington,,02 Charing Cross Park,"",Cleveland,Ohio,44191
7174733,12,20,Loleta,Zacharias,Filipchikov,,40 Schlimgen Hill,"",Roanoke,Virginia,24024
8309835,12,23,Crista,Raddie,Kira,,9374 Oneill Avenue,"",Hampton,Virginia,23663
1446230,5,20,Bryce,Marielle,Doggrell,,1681 Tony Hill,"",Waco,Texas,76796
2182112,5,21,Jennee,Risa,Maasz,,8913 Weeping Birch Plaza,"",Oklahoma City,Oklahoma,73109
8145063,7C,21,Hildagarde,Christi,Riccio,,534 Vermont Point,"",Kansas City,Missouri,64153
5796017,5,20,Conway,Sayres,Roelofs,,28 Iowa Terrace,"",San Francisco,California,94110
4018789,7C,23,Marlowe,Jack,Carlet,,63667 Elgar Road,"",Vancouver,Washington,98682
1701080,7C,21,Stesha,Skylar,Boyn,,0300 Grover Road,"",Madison,Wisconsin,53710
6067178,7C,20,Valerie,Blake,Scamerdine,,1067 Grover Center,"",New York City,New York,10039
5255957,5,21,Jillene,Gizela,Peizer,,20 Gerald Place,"",Bronx,New York,10474
5398030,12,23,Inger,Bettye,Southon,,59 Carioca Park,"",Sacramento,California,94273
4343659,12,20,Paulette,Norah,Cammis,,9014 Raven Alley,"",Wilmington,Delaware,19892
2744171,5,21,Rodi,Sharla,Sandlin,,35 Daystar Center,"",Sacramento,California,94297
6317456,12,20,Elwood,Anastasia,Bullimore,,60 Express Drive,"",Albuquerque,New Mexico,87201
8155357,7C,21,Chiquia,Basile,Cabrer,,88292 Walton Point,"",Springfield,Massachusetts,01152
4802104,7C,23,Sisile,Viv,Aberdeen,,25386 David Lane,"",Detroit,Michigan,48232
2410327,7C,20,Dolph,Cleve,Tremoulet,,29174 Muir Alley,"",Cincinnati,Ohio,45999
9387328,5,20,Enos,Belva,Gallie,,6081 Leroy Hill,"",Birmingham,Alabama,35205
1421500,5,20,Sherlocke,Bertine,Drowsfield,,742 Carpenter Crossing,"",Mobile,Alabama,36610
3067617,5,21,Millisent,Aggie,Standing,,60612 Lawn Park,"",El Paso,Texas,79994
7291378,5,23,Budd,Levy,Kellard,,1022 Bobwhite Way,"",Philadelphia,Pennsylvania,19196
9610826,7C,20,Valery,Odilia,Soal,,79 Karstens Hill,"",Des Moines,Iowa,50393
1726592,12,21,Devin,Gwenny,Vigar,,566 Lindbergh Point,Apartment 3,Englewood,Colorado,80150
1531946,5,20,Rocky,Theadora,Casassa,,33852 Coolidge Center,Unit #75,El Paso,Texas,88579
6316093,5,23,Retha,Ardis,Sneyd,,955 New Castle Avenue,"",Boston,Massachusetts,02203
2211221,7C,21,Astrix,Wilona,Seale,,5 Graedel Park,Unit #75,Augusta,Georgia,30905
5602403,7C,20,Larine,Town,Patchett,,5 Continental Street,"",San Diego,California,92137
4124101,5,23,Bronnie,Junie,Wordsley,,3 Prentice Parkway,"",Charleston,West Virginia,25356
2587531,7C,23,Pietrek,Sigmund,Cyseley,,34080 Sauthoff Crossing,"",Pittsburgh,Pennsylvania,15286
2359788,7C,23,Dorisa,Elbert,Braybrook,,21 Rigney Trail,"",Fort Lauderdale,Florida,33310
8046884,12,23,Allard,Kettie,Slora,,46580 Mockingbird Circle,"",New York City,New York,10120
7692282,12,21,Ker,Arte,Lesslie,,82 Eastwood Crossing,"",Chicago,Illinois,60691
9507727,5,20,Rodie,Michell,Candlin,,12433 Hermina Circle,"",Northridge,California,91328
6571346,12,23,Leora,Courtnay,Woosnam,,65 Bowman Street,"",Minneapolis,Minnesota,55458
9035169,7C,23,Merrel,Christian,Whitesel,,21102 Eastwood Terrace,"",Fort Lauderdale,Florida,33315
9917334,7C,23,Rosemarie,Marci,Blew,,3 Fair Oaks Terrace,"",Shreveport,Louisiana,71115
7626707,5,20,Renie,Auria,Simonnet,,30 Harper Alley,Unit #75,Grand Rapids,Michigan,49518
4900623,5,23,Candice,Willard,Ritchley,Sr,0 Monument Trail,"",Atlanta,Georgia,30368
4888800,12,20,Irene,Aleen,Frowing,,0278 Sullivan Plaza,"",Dallas,Texas,75397
6443068,7C,20,Glenn,Sigismondo,Curmi,,36 Farragut Place,"",Oklahoma City,Oklahoma,73109
2052991,12,20,Winonah,Tanitansy,Kinneally,,2715 Delladonna Pass,"",Salt Lake City,Utah,84105
4705350,12,20,Orion,Tana,Bambury,,53938 Sommers Crossing,"",San Diego,California,92170
3548652,7C,20,Oberon,Kakalina,Wilne,,21688 Waxwing Crossing,"",Silver Spring,Maryland,20910
2344187,7C,20,Heath,Lainey,Filkov,,28 Waubesa Court,"",Chattanooga,Tennessee,37405
7498729,12,21,Yulma,Sarajane,Simioli,II,572 Anniversary Lane,"",Los Angeles,California,90020
6930646,7C,23,Boycie,Georges,Skep,,42442 Di Loreto Court,"",Dallas,Texas,75353
3276310,12,23,Selig,Nita,Belham,,46 International Way,"",Reno,Nevada,89595
9658218,5,21,Auroora,Corie,Losemann,,62446 Burning Wood Hill,"",Boise,Idaho,83732
9441736,5,23,Sancho,Elora,Ivashkov,,24 Rockefeller Parkway,"",Fresno,California,93740
4412463,5,23,Pincus,Bettine,Pardie,,5 Novick Parkway,"",Schenectady,New York,12325
9539834,5,23,Rachelle,Querida,Sings,,0 Grayhawk Crossing,"",Evansville,Indiana,47719
9314344,12,20,Ninnetta,Emanuel,Stent,,726 Debra Lane,Unit #75,Memphis,Tennessee,38168
5412992,7C,20,Angele,Drugi,Mainds,,5508 Cherokee Center,"",New Castle,Pennsylvania,16107
2800015,12,21,Yettie,Constancia,Rudram,,37161 Helena Road,"",Bloomington,Indiana,47405
5946985,12,20,Korey,Christos,Ettles,,607 Dakota Crossing,"",Seattle,Washington,98148
6120522,7C,21,Vern,Vanny,Easen,,98 Eastlawn Avenue,"",Austin,Texas,78769
8191165,12,23,Worth,Renato,MacAloren,,05 Green Way,"",Denver,Colorado,80243
5332221,12,23,Fanni,Jenny,Kerslake,,65479 Tony Park,"",Houston,Texas,77250
3007864,12,21,Dodie,Matthus,Poe,,25 Lawn Point,"",Fresno,California,93778
2993699,7C,23,Skelly,Cami,Pickavance,,008 Messerschmidt Parkway,"",Youngstown,Ohio,44505
9345840,12,20,Wesley,Matti,Heavy,,8961 Vernon Parkway,Unit #75,Montgomery,Alabama,36114
4261351,7C,23,Roderich,Jens,Sallowaye,,148 Riverside Pass,"",Saint Louis,Missouri,63121
2973257,7C,23,Barthel,Denney,Pinxton,,32116 Southridge Drive,"",Cleveland,Ohio,44130
7654686,7C,21,Lisabeth,Tiphanie,Morilla,,12638 Mitchell Alley,"",Saint Louis,Missouri,63126
9040969,12,23,Gussie,Itch,Witty,,320 Forest Dale Hill,"",Crawfordsville,Indiana,47937
4010812,7C,21,Verile,Bartholemy,Popescu,,78192 Scott Road,"",San Diego,California,92127
4163930,5,23,Annabal,Cate,Hindrick,,3 Morningstar Alley,"",Tampa,Florida,33680
2406456,7C,20,Lauree,Michele,Dawtre,,877 7th Way,"",Detroit,Michigan,48206
1283693,5,21,Keary,Laura,Skerratt,,046 Meadow Valley Place,"",Phoenix,Arizona,85005
7604980,5,21,Luise,Ode,Gollard,,2 Bellgrove Way,"",Washington,District of Columbia,20575
7680123,7C,21,Harbert,Shanie,Tanser,,92 Little Fleur Point,"",Houston,Texas,77245
6292395,5,23,Lonnard,Estelle,Santus,,00 Manitowish Trail,"",Las Vegas,Nevada,89115
7461870,12,21,Karina,Christa,Tarburn,,8 Surrey Avenue,"",Raleigh,North Carolina,27610
4184908,12,23,Sancho,Car,Eplate,,03 Linden Trail,"",Carol Stream,Illinois,60158
2845699,7C,23,Packston,Cord,Creed,,6 International Street,"",Memphis,Tennessee,38119
4714692,7C,21,Germain,Waylon,Ben,,86 Utah Place,"",San Rafael,California,94913
7451201,12,21,Winni,Bonnibelle,Layne,,6230 Sutteridge Park,"",Sacramento,California,95838
8141818,5,23,Dennie,Callean,Antunez,,01 Mitchell Hill,"",Cincinnati,Ohio,45296
9974370,12,20,Rosaleen,Ganny,Hughman,,62184 Northport Trail,"",Miami,Florida,33180
9392496,5,20,Bren,Mona,Mechan,,14 Sommers Lane,"",Saint Louis,Missouri,63180
5000152,12,23,Lorne,Muffin,Smallpeace,,6841 Cambridge Plaza,"",Montgomery,Alabama,36177
9610384,12,20,Anya,Dennie,Borthram,,89 Darwin Road,"",Oklahoma City,Oklahoma,73157
3638041,7C,20,Averill,Andeee,Davidovicz,,6692 Atwood Park,"",Daytona Beach,Florida,32123
9721403,5,23,Silvain,Charlene,Jowling,,338 Lakeland Plaza,"",Lansing,Michigan,48912
5152579,7C,21,Jobye,Rodie,Beidebeke,,4427 Hudson Place,"",New York City,New York,10079
4956874,5,21,Johnath,Wolfgang,Ponte,,2 Manitowish Alley,"",Hollywood,Florida,33023
7392862,12,21,Casandra,Sibbie,Drance,,2 Fuller Alley,"",Fresno,California,93721
8120604,7C,21,Leonardo,Trace,Warlow,,36 Anhalt Circle,"",San Jose,California,95138
8454839,5,20,Lay,Munmro,Demangeon,,3 Cascade Street,"",Roanoke,Virginia,24004
6005898,12,21,Bob,Jefferey,Simeoni,,92406 Mcguire Circle,"",Milwaukee,Wisconsin,53220
4584360,7C,23,Thornie,Ashly,MacBrearty,,4 Judy Center,"",Stockton,California,95219
2893401,12,23,Salem,Trudie,Cardnell,,90 Karstens Street,"",Sacramento,California,95818
6780378,12,20,Edithe,Frederigo,Shadrack,,684 Aberg Way,Unit #75,Fort Wayne,Indiana,46814
4101801,7C,21,Ardys,Kathlin,Stirland,,48 Raven Place,"",San Luis Obispo,California,93407
9816397,5,21,Howard,Genia,Gayter,,850 Hansons Place,"",Sacramento,California,95894
7002250,5,20,Louise,Melisse,Morley,,162 Fair Oaks Terrace,"",Cincinnati,Ohio,45264
1682745,12,23,Albert,Giulio,Brahams,,69988 Anthes Street,"",Washington,District of Columbia,20591
8081657,12,23,Leola,Mill,Beer,,480 Kim Avenue,"",Roanoke,Virginia,24014
9588061,7C,20,Becka,Enos,Winterflood,,89 Lien Point,"",Saint Augustine,Florida,32092
3059410,12,23,Glennis,Robinett,Fibbitts,,585 Fremont Pass,"",Chicago,Illinois,60681
7873786,5,23,Cathee,Fidel,Franc,,26321 Darwin Crossing,"",New York City,New York,10120
3227157,7C,20,Maura,Horatia,Dorning,,3139 High Crossing Hill,"",Albany,New York,12262
5123454,5,20,Xymenes,Sapphira,Brennon,,409 Melvin Parkway,"",Cheyenne,Wyoming,82007
3258186,5,20,Marrilee,Nobie,Joao,,062 Goodland Lane,"",Raleigh,North Carolina,27615
9702479,12,23,Lainey,Vernor,Onians,,60 Haas Way,"",Orlando,Florida,32835
8157156,7C,23,Shelli,Flinn,Ogers,,5 Fuller Court,"",Philadelphia,Pennsylvania,19141
6848080,5,23,Mellie,Pier,Dashkov,,3 Sachtjen Pass,"",El Paso,Texas,88558
3958658,7C,20,Karita,Allie,Bruggen,,34699 Continental Drive,"",New York City,New York,10045
4700073,12,23,Kimbell,Timi,Ivakhnov,,0269 Meadow Vale Park,"",Philadelphia,Pennsylvania,19104
9618949,7C,21,Melita,Amil,Dake,,8024 Anhalt Drive,"",Virginia Beach,Virginia,23454
3660540,12,21,Catlaina,Jacenta,Ganniclifft,,29 Village Green Hill,"",Richmond,Virginia,23272
5291257,5,20,Millie,Janka,Croll,,424 Hoffman Way,"",Nashville,Tennessee,37205
6202089,12,21,Zabrina,Arri,MacIlraith,,34 Melody Place,"",Sarasota,Florida,34276
3003175,5,20,Reese,Pauletta,Moraleda,,1 Ridgeway Trail,"",Lexington,Kentucky,40596
1249128,12,20,Jonis,Harlan,Icke,,0 Northfield Crossing,"",North Little Rock,Arkansas,72118
3063349,12,21,Inger,Cornelle,de Zamora,,8 Artisan Crossing,"",Washington,District of Columbia,20078
1185290,12,20,Malia,Kristal,Biddell,,440 Kropf Avenue,"",Naperville,Illinois,60567
7157641,5,20,Cindie,Viki,Yegorovnin,,54740 Twin Pines Court,"",Madison,Wisconsin,53779
9862333,12,23,Kristen,Meara,Denty,,4 Hanover Plaza,"",Crawfordsville,Indiana,47937
9354655,7C,20,Skyler,Friederike,Lestrange,,158 Dunning Circle,"",Erie,Pennsylvania,16534
1116459,12,23,Cicely,Janella,Strongman,,68815 Gina Drive,"",Bakersfield,California,93381
1614181,7C,23,Bidget,Jacquelin,Anersen,,69763 Waywood Avenue,Unit #75,Pittsburgh,Pennsylvania,15220
4068689,5,21,Sileas,Raychel,Moar,,739 Commercial Plaza,"",Louisville,Kentucky,40233
8249357,5,21,Christi,Carr,Itzkovwitch,,9 Havey Junction,"",Philadelphia,Pennsylvania,19131
7380428,7C,20,Daphne,Doro,Pitfield,,3 Quincy Alley,Unit #75,Burbank,California,91505
1281899,12,21,Una,Torin,Ede,,520 Pepper Wood Center,"",Evansville,Indiana,47725
7661918,5,21,Granny,Robbyn,Seary,III,03 Nova Drive,"",Pittsburgh,Pennsylvania,15240
3441055,12,20,Coralie,Halie,Rickersy,,368 Havey Junction,"",Meridian,Mississippi,39305
5044637,7C,21,Louie,Emmy,Duding,,12723 Marquette Drive,"",Aiken,South Carolina,29805
2344045,7C,23,Rodina,Vaclav,Pfeifer,,74096 Riverside Junction,"",Jersey City,New Jersey,07310
5077201,12,20,Nydia,Chanda,Elijahu,,9898 Badeau Center,"",Lansing,Michigan,48901
9946249,12,23,Peadar,Findley,Edsell,,5 Farwell Hill,"",Kansas City,Missouri,64193
6650058,5,20,Wallie,Ivette,Sketchley,,0993 Summit Plaza,"",Corpus Christi,Texas,78405
5168816,7C,21,Reg,Warde,Jeremaes,,3 Village Lane,"",Tampa,Florida,33647
6999605,5,21,Banky,Blinny,Langman,,281 Lighthouse Bay Circle,"",Lake Charles,Louisiana,70616
3851899,7C,23,Ossie,Yasmin,Addy,,9 Melody Street,"",Bakersfield,California,93386
6725373,12,20,Cybill,Elia,Pimlott,,55469 Springview Street,"",Modesto,California,95397
9316808,12,21,Aurea,Claribel,Mahoney,,70448 Sycamore Center,"",Saint Cloud,Minnesota,56372
4777701,12,20,Nikola,Marv,Maidens,,94 Northport Terrace,"",Columbus,Georgia,31904
4098220,5,20,Ariel,Eben,Headington,,0634 Elmside Circle,"",Raleigh,North Carolina,27690
7112296,5,23,Earlie,Lesly,Edelmann,,95980 Kenwood Park,"",Amarillo,Texas,79118
7377868,5,21,Marita,Iormina,Dransfield,,93 Waywood Place,"",Alexandria,Virginia,22301
9201684,7C,20,Noell,Hort,Spinney,,2 Elgar Circle,"",Chicago,Illinois,60604
6942125,12,21,Sheffield,Cobby,Tedridge,,51098 Gale Road,"",Roanoke,Virginia,24034
5882939,12,20,Robinia,Joelynn,Reach,,403 Bashford Place,"",Nashville,Tennessee,37250
7743612,5,20,Dwayne,Shaine,Jakubski,,858 Hudson Hill,"",Pasadena,California,91131
4614867,7C,20,Gae,Louie,Scarbarrow,,50697 Summit Pass,"",Birmingham,Alabama,35236
1169618,12,20,Myriam,Belita,Underdown,,95 Chinook Center,"",Lansing,Michigan,48930
8811716,12,23,Chery,Travus,Davies,,6457 Lakewood Gardens Junction,"",Philadelphia,Pennsylvania,19093
